{
"type": "FeatureCollection",
"name": "F:\\MOEED\\CB_1\\Topography CB_1\\Kela\\Builtup.geojson",
"crs": { "type": "name", "properties": { "name": "urn:ogc:def:crs:OGC:1.3:CRS84" } },
"features": [
{ "type": "Feature", "properties": { "Id": 0 }, "geometry": { "type": "Polygon", "coordinates": [ [ [ 74.428771672130409, 31.611013462803587 ], [ 74.428730449705526, 31.611012543388938 ], [ 74.428729820763706, 31.611068649548731 ], [ 74.428771909588605, 31.611068347751726 ], [ 74.428771672130409, 31.611013462803587 ] ] ] } },
{ "type": "Feature", "properties": { "Id": 0 }, "geometry": { "type": "Polygon", "coordinates": [ [ [ 74.433589235728306, 31.610935585569873 ], [ 74.43342499595208, 31.610931866207704 ], [ 74.433422069382686, 31.611068838074196 ], [ 74.433584929567303, 31.611069560388419 ], [ 74.433589235728306, 31.610935585569873 ] ] ] } },
{ "type": "Feature", "properties": { "Id": 0 }, "geometry": { "type": "Polygon", "coordinates": [ [ [ 74.43360594581516, 31.610729944549902 ], [ 74.433566791317915, 31.610718500116221 ], [ 74.433549392417532, 31.610754930557341 ], [ 74.433590543592643, 31.610767608937831 ], [ 74.43360594581516, 31.610729944549902 ] ] ] } },
{ "type": "Feature", "properties": { "Id": 0 }, "geometry": { "type": "Polygon", "coordinates": [ [ [ 74.427855426706799, 31.608408747370774 ], [ 74.427701105534197, 31.6084069075239 ], [ 74.427697185017848, 31.608535906946706 ], [ 74.427851953731803, 31.608537748804455 ], [ 74.427855426706799, 31.608408747370774 ] ] ] } },
{ "type": "Feature", "properties": { "Id": 0 }, "geometry": { "type": "Polygon", "coordinates": [ [ [ 74.428030503149969, 31.608454706541444 ], [ 74.427923149028715, 31.608453460103711 ], [ 74.427918807434523, 31.608651368799443 ], [ 74.427970247961625, 31.60865198201633 ], [ 74.427968810000749, 31.608667672005407 ], [ 74.427990279469611, 31.608668150990631 ], [ 74.427988316938297, 31.60869647234167 ], [ 74.428023644266375, 31.608698544737393 ], [ 74.428030503149969, 31.608454706541444 ] ] ] } },
{ "type": "Feature", "properties": { "Id": 0 }, "geometry": { "type": "Polygon", "coordinates": [ [ [ 74.428146043321505, 31.608580412452646 ], [ 74.428083424288261, 31.608578983576923 ], [ 74.428081625935306, 31.608653629272492 ], [ 74.428142907710708, 31.608654286483112 ], [ 74.428146043321505, 31.608580412452646 ] ] ] } },
{ "type": "Feature", "properties": { "Id": 0 }, "geometry": { "type": "Polygon", "coordinates": [ [ [ 74.428291022845627, 31.608646909868664 ], [ 74.42822572680808, 31.608644320561446 ], [ 74.428224544359182, 31.608691404555486 ], [ 74.428289842769018, 31.608693611034422 ], [ 74.428291022845627, 31.608646909868664 ] ] ] } },
{ "type": "Feature", "properties": { "Id": 0 }, "geometry": { "type": "Polygon", "coordinates": [ [ [ 74.427867837492684, 31.608573806884941 ], [ 74.427698749510284, 31.608572666569728 ], [ 74.42769627399062, 31.608611705129839 ], [ 74.427718038989951, 31.608610555506417 ], [ 74.42771776367951, 31.608625608143289 ], [ 74.427761920190832, 31.608625962780696 ], [ 74.427761644857071, 31.608611064488006 ], [ 74.42780066240249, 31.608612807389942 ], [ 74.42780056937228, 31.60862801765477 ], [ 74.427844368064484, 31.608626959360425 ], [ 74.427844644313566, 31.608611749916218 ], [ 74.427866076960157, 31.608612629973319 ], [ 74.427867837492684, 31.608573806884941 ] ] ] } },
{ "type": "Feature", "properties": { "Id": 0 }, "geometry": { "type": "Polygon", "coordinates": [ [ [ 74.427562427659964, 31.60856228564645 ], [ 74.427510330294723, 31.608560827074395 ], [ 74.427505789968436, 31.608647787908097 ], [ 74.427557888881168, 31.608649001471832 ], [ 74.427562427659964, 31.60856228564645 ] ] ] } },
{ "type": "Feature", "properties": { "Id": 0 }, "geometry": { "type": "Polygon", "coordinates": [ [ [ 74.428285343055421, 31.607892690124192 ], [ 74.428123411160456, 31.607891965248822 ], [ 74.428119877742262, 31.608030920266341 ], [ 74.428283610880314, 31.60802973901114 ], [ 74.428285343055421, 31.607892690124192 ] ] ] } },
{ "type": "Feature", "properties": { "Id": 0 }, "geometry": { "type": "Polygon", "coordinates": [ [ [ 74.4284100463492, 31.607909710319397 ], [ 74.428312531670443, 31.607908891082516 ], [ 74.428308225016622, 31.607954812581113 ], [ 74.428408428376983, 31.607954878173494 ], [ 74.4284100463492, 31.607909710319397 ] ] ] } },
{ "type": "Feature", "properties": { "Id": 0 }, "geometry": { "type": "Polygon", "coordinates": [ [ [ 74.428313591898743, 31.607808591804513 ], [ 74.428184319572964, 31.607807247493529 ], [ 74.428183197956841, 31.60784437793129 ], [ 74.428312489048466, 31.607842659609481 ], [ 74.428313591898743, 31.607808591804513 ] ] ] } },
{ "type": "Feature", "properties": { "Id": 0 }, "geometry": { "type": "Polygon", "coordinates": [ [ [ 74.428460309917128, 31.607810014045072 ], [ 74.428330585581108, 31.607809433539199 ], [ 74.428329042429311, 31.607842350854462 ], [ 74.42845742483459, 31.607842925357858 ], [ 74.428460309917128, 31.607810014045072 ] ] ] } },
{ "type": "Feature", "properties": { "Id": 0 }, "geometry": { "type": "Polygon", "coordinates": [ [ [ 74.42851758558848, 31.607734085188042 ], [ 74.428479110966123, 31.607734678728061 ], [ 74.428473071871039, 31.607844526727739 ], [ 74.428513338178945, 31.607843558366088 ], [ 74.42851758558848, 31.607734085188042 ] ] ] } },
{ "type": "Feature", "properties": { "Id": 0 }, "geometry": { "type": "Polygon", "coordinates": [ [ [ 74.42855415469846, 31.6078257475024 ], [ 74.428535369370692, 31.607825280621757 ], [ 74.42853381927533, 31.607859346428249 ], [ 74.428553948924872, 31.607859436483476 ], [ 74.42855415469846, 31.6078257475024 ] ] ] } },
{ "type": "Feature", "properties": { "Id": 0 }, "geometry": { "type": "Polygon", "coordinates": [ [ [ 74.428469374418455, 31.607644284971556 ], [ 74.428424660678331, 31.607641022181419 ], [ 74.428413693935283, 31.607751996649071 ], [ 74.428460651369278, 31.607754120963197 ], [ 74.428469374418455, 31.607644284971556 ] ] ] } },
{ "type": "Feature", "properties": { "Id": 0 }, "geometry": { "type": "Polygon", "coordinates": [ [ [ 74.428367871519868, 31.607637322497499 ], [ 74.428329841922363, 31.607638300824192 ], [ 74.428327823906628, 31.607748932492964 ], [ 74.428366750538231, 31.607747575341797 ], [ 74.428367871519868, 31.607637322497499 ] ] ] } },
{ "type": "Feature", "properties": { "Id": 0 }, "geometry": { "type": "Polygon", "coordinates": [ [ [ 74.428375350932484, 31.607511401673754 ], [ 74.428323904009375, 31.607511937115316 ], [ 74.428325019601814, 31.607622199970713 ], [ 74.428373332975752, 31.607622033346114 ], [ 74.428375350932484, 31.607511401673754 ] ] ] } },
{ "type": "Feature", "properties": { "Id": 0 }, "geometry": { "type": "Polygon", "coordinates": [ [ [ 74.428315404855923, 31.607511899077444 ], [ 74.428274707742048, 31.607510185570938 ], [ 74.42827313933023, 31.607620436413153 ], [ 74.428313841170564, 31.607621384262035 ], [ 74.428315404855923, 31.607511899077444 ] ] ] } },
{ "type": "Feature", "properties": { "Id": 0 }, "geometry": { "type": "Polygon", "coordinates": [ [ [ 74.428521791868988, 31.60748487529418 ], [ 74.428480638083869, 31.607484691169461 ], [ 74.428477730281386, 31.607594553183851 ], [ 74.428521116059301, 31.607595512975251 ], [ 74.428521791868988, 31.60748487529418 ] ] ] } },
{ "type": "Feature", "properties": { "Id": 0 }, "geometry": { "type": "Polygon", "coordinates": [ [ [ 74.428170647416039, 31.607482538145312 ], [ 74.428131289949405, 31.607481213430098 ], [ 74.428131058662231, 31.607592235935691 ], [ 74.428171760488155, 31.607593183829685 ], [ 74.428170647416039, 31.607482538145312 ] ] ] } },
{ "type": "Feature", "properties": { "Id": 0 }, "geometry": { "type": "Polygon", "coordinates": [ [ [ 74.428171683272183, 31.607605817197221 ], [ 74.428130538796552, 31.607604101641815 ], [ 74.428123154988839, 31.607714326443741 ], [ 74.428166536136857, 31.607716052014784 ], [ 74.428171683272183, 31.607605817197221 ] ] ] } },
{ "type": "Feature", "properties": { "Id": 0 }, "geometry": { "type": "Polygon", "coordinates": [ [ [ 74.428170927488935, 31.607729471066044 ], [ 74.428130656548248, 31.607731204978915 ], [ 74.428123275068288, 31.60784104694924 ], [ 74.428163984022106, 31.607840846359075 ], [ 74.428170927488935, 31.607729471066044 ] ] ] } },
{ "type": "Feature", "properties": { "Id": 0 }, "geometry": { "type": "Polygon", "coordinates": [ [ [ 74.428023748528531, 31.607803465866628 ], [ 74.427989754151241, 31.607802930801334 ], [ 74.427985374784285, 31.607860719996015 ], [ 74.428024294444199, 31.60786051143771 ], [ 74.428023748528531, 31.607803465866628 ] ] ] } },
{ "type": "Feature", "properties": { "Id": 0 }, "geometry": { "type": "Polygon", "coordinates": [ [ [ 74.427985358140646, 31.607790277402877 ], [ 74.428016663881181, 31.607791566109469 ], [ 74.428018794897781, 31.607735681044062 ], [ 74.427989730481684, 31.607733636695411 ], [ 74.427985358140646, 31.607790277402877 ] ] ] } },
{ "type": "Feature", "properties": { "Id": 0 }, "geometry": { "type": "Polygon", "coordinates": [ [ [ 74.427989358057147, 31.60772138415469 ], [ 74.428024694379374, 31.607721925228851 ], [ 74.428028160341242, 31.607667194659605 ], [ 74.427991032400726, 31.607667028403341 ], [ 74.427989358057147, 31.60772138415469 ] ] ] } },
{ "type": "Feature", "properties": { "Id": 0 }, "geometry": { "type": "Polygon", "coordinates": [ [ [ 74.42804055406171, 31.607615566784023 ], [ 74.427991793368221, 31.607615731279662 ], [ 74.427990222014103, 31.607653242542103 ], [ 74.428038533062178, 31.60765345887366 ], [ 74.42804055406171, 31.607615566784023 ] ] ] } },
{ "type": "Feature", "properties": { "Id": 0 }, "geometry": { "type": "Polygon", "coordinates": [ [ [ 74.427962654086514, 31.607625937462981 ], [ 74.427896457101184, 31.607624492476997 ], [ 74.427894948916091, 31.607651667346762 ], [ 74.427962932877918, 31.607653503176053 ], [ 74.427962654086514, 31.607625937462981 ] ] ] } },
{ "type": "Feature", "properties": { "Id": 0 }, "geometry": { "type": "Polygon", "coordinates": [ [ [ 74.427883042052159, 31.607623666713234 ], [ 74.427815938714929, 31.607624131824984 ], [ 74.427814870806927, 31.607652457185157 ], [ 74.427881969482343, 31.607652757732822 ], [ 74.427883042052159, 31.607623666713234 ] ] ] } },
{ "type": "Feature", "properties": { "Id": 0 }, "geometry": { "type": "Polygon", "coordinates": [ [ [ 74.427802518984038, 31.607624071711381 ], [ 74.427737204944265, 31.607624544796987 ], [ 74.427736134670738, 31.607653252985497 ], [ 74.427800561105769, 31.607651627405151 ], [ 74.427802518984038, 31.607624071711381 ] ] ] } },
{ "type": "Feature", "properties": { "Id": 0 }, "geometry": { "type": "Polygon", "coordinates": [ [ [ 74.427723544016757, 31.607663916091653 ], [ 74.427680146510212, 31.607664870175473 ], [ 74.427680804650052, 31.607776662337734 ], [ 74.427722417591596, 31.607774934579314 ], [ 74.427723544016757, 31.607663916091653 ] ] ] } },
{ "type": "Feature", "properties": { "Id": 0 }, "geometry": { "type": "Polygon", "coordinates": [ [ [ 74.427717878771759, 31.607785633758045 ], [ 74.427689690263151, 31.607786655983489 ], [ 74.427691144677183, 31.607841408586534 ], [ 74.427720225511322, 31.607840773198497 ], [ 74.427717878771759, 31.607785633758045 ] ] ] } },
{ "type": "Feature", "properties": { "Id": 0 }, "geometry": { "type": "Polygon", "coordinates": [ [ [ 74.427722818135905, 31.607855715564835 ], [ 74.427689266384363, 31.607855948082037 ], [ 74.427689041590156, 31.60796582208626 ], [ 74.427723933017333, 31.607965978411194 ], [ 74.427722818135905, 31.607855715564835 ] ] ] } },
{ "type": "Feature", "properties": { "Id": 0 }, "geometry": { "type": "Polygon", "coordinates": [ [ [ 74.427814967182428, 31.607856128376696 ], [ 74.427780527804146, 31.60785520842245 ], [ 74.427779853449636, 31.6079654632535 ], [ 74.427816084513864, 31.607966008394261 ], [ 74.427814967182428, 31.607856128376696 ] ] ] } },
{ "type": "Feature", "properties": { "Id": 0 }, "geometry": { "type": "Polygon", "coordinates": [ [ [ 74.427816454574767, 31.607978643764056 ], [ 74.427781113474737, 31.607978868289695 ], [ 74.42777899167443, 31.608033222030222 ], [ 74.427813438142351, 31.608032993497815 ], [ 74.427816454574767, 31.607978643764056 ] ] ] } },
{ "type": "Feature", "properties": { "Id": 0 }, "geometry": { "type": "Polygon", "coordinates": [ [ [ 74.427722961087653, 31.607978607768779 ], [ 74.427689413975813, 31.607978074626949 ], [ 74.427685940775717, 31.608033953669622 ], [ 74.427723071201655, 31.608033737187043 ], [ 74.427722961087653, 31.607978607768779 ] ] ] } },
{ "type": "Feature", "properties": { "Id": 0 }, "geometry": { "type": "Polygon", "coordinates": [ [ [ 74.427724361662129, 31.608042165443166 ], [ 74.427689025222051, 31.608041624284507 ], [ 74.427686446672013, 31.608097507335092 ], [ 74.427723132138269, 31.608096906019291 ], [ 74.427724361662129, 31.608042165443166 ] ] ] } },
{ "type": "Feature", "properties": { "Id": 0 }, "geometry": { "type": "Polygon", "coordinates": [ [ [ 74.428023547533414, 31.607909511584122 ], [ 74.42799089743545, 31.607908599698561 ], [ 74.42798920670063, 31.607965635252807 ], [ 74.428025892114647, 31.607965033849375 ], [ 74.428023547533414, 31.607909511584122 ] ] ] } },
{ "type": "Feature", "properties": { "Id": 0 }, "geometry": { "type": "Polygon", "coordinates": [ [ [ 74.428028063210704, 31.607975763084632 ], [ 74.427991375451825, 31.60797674731791 ], [ 74.427990584049368, 31.608033021219331 ], [ 74.428027719156646, 31.608032038989609 ], [ 74.428028063210704, 31.607975763084632 ] ] ] } },
{ "type": "Feature", "properties": { "Id": 0 }, "geometry": { "type": "Polygon", "coordinates": [ [ [ 74.428028972196557, 31.608046592511482 ], [ 74.427993181403338, 31.608047197921749 ], [ 74.427993289335348, 31.608102710170336 ], [ 74.428029977143623, 31.608101725937118 ], [ 74.428028972196557, 31.608046592511482 ] ] ] } },
{ "type": "Feature", "properties": { "Id": 0 }, "geometry": { "type": "Polygon", "coordinates": [ [ [ 74.429290594343541, 31.6075124314387 ], [ 74.429277159549912, 31.607588173699284 ], [ 74.429148882590368, 31.607570372701513 ], [ 74.429145089094447, 31.607605577012173 ], [ 74.42931315929809, 31.607626618523856 ], [ 74.429325014935941, 31.607516413619756 ], [ 74.429290594343541, 31.6075124314387 ] ] ] } },
{ "type": "Feature", "properties": { "Id": 0 }, "geometry": { "type": "Polygon", "coordinates": [ [ [ 74.429344140261676, 31.607502500502363 ], [ 74.429320360858398, 31.607619376741496 ], [ 74.429348085634672, 31.607621031962729 ], [ 74.429495121429213, 31.60771701587019 ], [ 74.429613179403034, 31.60779679094265 ], [ 74.429672449631653, 31.607833808216583 ], [ 74.429760442774793, 31.607782134852027 ], [ 74.429818970698008, 31.607720758907309 ], [ 74.429826088234691, 31.607727298955353 ], [ 74.429851297080702, 31.60770137836889 ], [ 74.429847495696038, 31.607696813264038 ], [ 74.42991229267767, 31.607634377991769 ], [ 74.429855274597443, 31.607603819817815 ], [ 74.429729028179253, 31.607560186775636 ], [ 74.429592941963833, 31.607525482478639 ], [ 74.429471809570558, 31.607505201322756 ], [ 74.429390320320934, 31.607502678110976 ], [ 74.429344140261676, 31.607502500502363 ] ] ] } },
{ "type": "Feature", "properties": { "Id": 0 }, "geometry": { "type": "Polygon", "coordinates": [ [ [ 74.429133448093012, 31.607973816886723 ], [ 74.429099986196988, 31.608032624664894 ], [ 74.429145522390357, 31.608047758929249 ], [ 74.42917317369438, 31.607988159493011 ], [ 74.429133448093012, 31.607973816886723 ] ] ] } },
{ "type": "Feature", "properties": { "Id": 0 }, "geometry": { "type": "Polygon", "coordinates": [ [ [ 74.429162276641435, 31.6079181105281 ], [ 74.429150013504653, 31.607945968115192 ], [ 74.429173425130287, 31.607952815621015 ], [ 74.429184043065774, 31.607924323434894 ], [ 74.429162276641435, 31.6079181105281 ] ] ] } },
{ "type": "Feature", "properties": { "Id": 0 }, "geometry": { "type": "Polygon", "coordinates": [ [ [ 74.430780068959123, 31.607390826198749 ], [ 74.430689273892554, 31.607315002106663 ], [ 74.430660041802511, 31.607340522090521 ], [ 74.430755769075489, 31.607414453983651 ], [ 74.430780068959123, 31.607390826198749 ] ] ] } },
{ "type": "Feature", "properties": { "Id": 0 }, "geometry": { "type": "Polygon", "coordinates": [ [ [ 74.430948647044758, 31.607401913984951 ], [ 74.430795667052877, 31.607400466703389 ], [ 74.430795900097024, 31.607435689011215 ], [ 74.430945296899765, 31.607437886009862 ], [ 74.430948647044758, 31.607401913984951 ] ] ] } },
{ "type": "Feature", "properties": { "Id": 0 }, "geometry": { "type": "Polygon", "coordinates": [ [ [ 74.428592027201702, 31.606488167354041 ], [ 74.42846005320115, 31.606487086894688 ], [ 74.42845901624078, 31.606516239339317 ], [ 74.428590123947856, 31.606518541012473 ], [ 74.428592027201702, 31.606488167354041 ] ] ] } },
{ "type": "Feature", "properties": { "Id": 0 }, "geometry": { "type": "Polygon", "coordinates": [ [ [ 74.427765047341893, 31.606890214339522 ], [ 74.427664881944935, 31.60688413017893 ], [ 74.427662987373068, 31.606913033753408 ], [ 74.42776229694158, 31.606918624046791 ], [ 74.427765047341893, 31.606890214339522 ] ] ] } },
{ "type": "Feature", "properties": { "Id": 0 }, "geometry": { "type": "Polygon", "coordinates": [ [ [ 74.426626034339307, 31.606600442370738 ], [ 74.426419885826206, 31.606588797355904 ], [ 74.426423079482007, 31.606651597423426 ], [ 74.426625282024858, 31.606650208168496 ], [ 74.426626034339307, 31.606600442370738 ] ] ] } },
{ "type": "Feature", "properties": { "Id": 0 }, "geometry": { "type": "Polygon", "coordinates": [ [ [ 74.42666623133168, 31.606683699033496 ], [ 74.426666742822263, 31.606819226618068 ], [ 74.426646163736677, 31.606819517089527 ], [ 74.426646406950823, 31.606852825243219 ], [ 74.426713053026901, 31.606853890048829 ], [ 74.426714534830666, 31.606685064347666 ], [ 74.42666623133168, 31.606683699033496 ] ] ] } },
{ "type": "Feature", "properties": { "Id": 0 }, "geometry": { "type": "Polygon", "coordinates": [ [ [ 74.430037092654018, 31.605106552866499 ], [ 74.430037092649073, 31.605106552866499 ], [ 74.430038972413655, 31.60516513577322 ], [ 74.430147674083997, 31.605164855056909 ], [ 74.430148023819214, 31.60510743061705 ], [ 74.430037092654018, 31.605106552866499 ] ] ] } },
{ "type": "Feature", "properties": { "Id": 0 }, "geometry": { "type": "Polygon", "coordinates": [ [ [ 74.430172052795825, 31.605128211167827 ], [ 74.430170777808527, 31.605264113679411 ], [ 74.430333588185817, 31.605266754043505 ], [ 74.43033710649236, 31.605129713012715 ], [ 74.430172052795825, 31.605128211167827 ] ] ] } },
{ "type": "Feature", "properties": { "Id": 0 }, "geometry": { "type": "Polygon", "coordinates": [ [ [ 74.430805093321624, 31.605150666727592 ], [ 74.430743073560734, 31.60513533648005 ], [ 74.43073375461357, 31.605162740574368 ], [ 74.430797174246834, 31.60517812244516 ], [ 74.430805093321624, 31.605150666727592 ] ] ] } },
{ "type": "Feature", "properties": { "Id": 0 }, "geometry": { "type": "Polygon", "coordinates": [ [ [ 74.430955365937947, 31.609001992717392 ], [ 74.43089196570638, 31.609032445246601 ], [ 74.430891043177525, 31.609032907660328 ], [ 74.430890041494393, 31.609033227463378 ], [ 74.430888990482771, 31.609033395133377 ], [ 74.430887921437233, 31.609033405677859 ], [ 74.430886866189297, 31.609033258782841 ], [ 74.430885856159691, 31.609032958822233 ], [ 74.430884921422717, 31.609032514727552 ], [ 74.430884089810775, 31.609031939722033 ], [ 74.430824353012071, 31.609002349858656 ], [ 74.430814936889732, 31.609014068738446 ], [ 74.430846415177683, 31.609027269911543 ], [ 74.430875773054439, 31.609043663504526 ], [ 74.430877126239253, 31.609044406217585 ], [ 74.430878327272254, 31.60904532068832 ], [ 74.430879346674899, 31.609046384471657 ], [ 74.430880159426593, 31.609047571457715 ], [ 74.430880745578861, 31.609048852512689 ], [ 74.430881090744975, 31.609050196193923 ], [ 74.430881186453021, 31.609051569521608 ], [ 74.430881030353916, 31.609052938788334 ], [ 74.430881228989321, 31.609110646186561 ], [ 74.430889838696913, 31.609111007509245 ], [ 74.430898452333821, 31.609110722925021 ], [ 74.430899739535292, 31.609049729112012 ], [ 74.430900090097978, 31.609048112547171 ], [ 74.430900722530737, 31.609046560017276 ], [ 74.430901622260677, 31.609045107296541 ], [ 74.430902768555725, 31.609043787859314 ], [ 74.430904135002336, 31.609042632108789 ], [ 74.43090569011413, 31.609041666676344 ], [ 74.430933907943668, 31.609026841697833 ], [ 74.430963413835542, 31.609013983854645 ], [ 74.430955365937947, 31.609001992717392 ] ] ] } },
{ "type": "Feature", "properties": { "Id": 0 }, "geometry": { "type": "Polygon", "coordinates": [ [ [ 74.434527665034452, 31.607518112080271 ], [ 74.434278575951097, 31.607445226651286 ], [ 74.434182333020459, 31.607641005860447 ], [ 74.434247907268812, 31.607662232872329 ], [ 74.434226732717889, 31.607696235771627 ], [ 74.434250446228674, 31.607704715426994 ], [ 74.43423912564063, 31.607727396410041 ], [ 74.434404428656777, 31.607785554452619 ], [ 74.434527665034452, 31.607518112080271 ] ] ] } },
{ "type": "Feature", "properties": { "Id": 0 }, "geometry": { "type": "Polygon", "coordinates": [ [ [ 74.434139485200646, 31.607699007730034 ], [ 74.434111895021317, 31.607749037539723 ], [ 74.434142246003702, 31.607760274354803 ], [ 74.434168056130645, 31.60770870529349 ], [ 74.434139485200646, 31.607699007730034 ] ] ] } },
{ "type": "Feature", "properties": { "Id": 0 }, "geometry": { "type": "Polygon", "coordinates": [ [ [ 74.434889533521911, 31.608017788340412 ], [ 74.434782163527771, 31.608019227480455 ], [ 74.434782725128514, 31.608074358920714 ], [ 74.434891427917407, 31.608074457036913 ], [ 74.434889533521911, 31.608017788340412 ] ] ] } },
{ "type": "Feature", "properties": { "Id": 0 }, "geometry": { "type": "Polygon", "coordinates": [ [ [ 74.434887998323049, 31.608123828219771 ], [ 74.434727387006149, 31.608126563116024 ], [ 74.434725680448949, 31.608260932388497 ], [ 74.434886264247055, 31.608262791453861 ], [ 74.434887998323049, 31.608123828219771 ] ] ] } },
{ "type": "Feature", "properties": { "Id": 0 }, "geometry": { "type": "Polygon", "coordinates": [ [ [ 74.43466585525853, 31.608236608124347 ], [ 74.434646789385482, 31.608238248663731 ], [ 74.434649077506123, 31.608253783104104 ], [ 74.434667230097389, 31.608251668088617 ], [ 74.43466585525853, 31.608236608124347 ] ] ] } },
{ "type": "Feature", "properties": { "Id": 0 }, "geometry": { "type": "Polygon", "coordinates": [ [ [ 74.435219333558706, 31.607999339301866 ], [ 74.435219333558706, 31.607999339301067 ], [ 74.435169246832587, 31.607996820792497 ], [ 74.43516636996975, 31.608102854745145 ], [ 74.435213786655765, 31.608103064409633 ], [ 74.435219333558706, 31.607999339301866 ] ] ] } },
{ "type": "Feature", "properties": { "Id": 0 }, "geometry": { "type": "Polygon", "coordinates": [ [ [ 74.429330743789549, 31.611119159266053 ], [ 74.429324294672256, 31.611119030093054 ], [ 74.429323903073652, 31.611125551685536 ], [ 74.429330940367166, 31.611125382409131 ], [ 74.429330743789549, 31.611119159266053 ] ] ] } },
{ "type": "Feature", "properties": { "Id": 0 }, "geometry": { "type": "Polygon", "coordinates": [ [ [ 74.429352207472036, 31.611118653006194 ], [ 74.429345054135652, 31.611118621047122 ], [ 74.429344663150729, 31.611125042283312 ], [ 74.429352168291047, 31.611125075814158 ], [ 74.429352207472036, 31.611118653006194 ] ] ] } },
{ "type": "Feature", "properties": { "Id": 0 }, "geometry": { "type": "Polygon", "coordinates": [ [ [ 74.42932911362, 31.611078807620597 ], [ 74.429322078166663, 31.611078675827844 ], [ 74.429321806897079, 31.611084696162415 ], [ 74.429329078723072, 31.61108452793394 ], [ 74.42932911362, 31.611078807620597 ] ] ] } },
{ "type": "Feature", "properties": { "Id": 0 }, "geometry": { "type": "Polygon", "coordinates": [ [ [ 74.429343897928661, 31.611077468646481 ], [ 74.42934362298719, 31.611084091119363 ], [ 74.429350540561003, 31.611084322743412 ], [ 74.429350579742035, 31.611077899935434 ], [ 74.429343897928661, 31.611077468646481 ] ] ] } },
{ "type": "Feature", "properties": { "Id": 0 }, "geometry": { "type": "Polygon", "coordinates": [ [ [ 74.4293281677989, 31.611060839114099 ], [ 74.429321132346942, 31.61106070732129 ], [ 74.42932121104387, 31.61106703029683 ], [ 74.429328364376289, 31.611067062257188 ], [ 74.4293281677989, 31.611060839114099 ] ] ] } },
{ "type": "Feature", "properties": { "Id": 0 }, "geometry": { "type": "Polygon", "coordinates": [ [ [ 74.429349986332241, 31.611059832644369 ], [ 74.429343182966917, 31.61106010332615 ], [ 74.42934302712986, 31.611066425253863 ], [ 74.429350061970126, 31.611066657401825 ], [ 74.429349986332241, 31.611059832644369 ] ] ] } },
{ "type": "Feature", "properties": { "Id": 0 }, "geometry": { "type": "Polygon", "coordinates": [ [ [ 74.429326422200077, 31.611020185875176 ], [ 74.429318448609678, 31.611020049890744 ], [ 74.429317939743498, 31.611026570959368 ], [ 74.429326501509607, 31.611026408494403 ], [ 74.429326422200077, 31.611020185875176 ] ] ] } },
{ "type": "Feature", "properties": { "Id": 0 }, "geometry": { "type": "Polygon", "coordinates": [ [ [ 74.429348592526978, 31.611019180977422 ], [ 74.429341438586007, 31.611019249374621 ], [ 74.429340927884795, 31.611026071512473 ], [ 74.429348549672653, 31.611026205923718 ], [ 74.429348592526978, 31.611019180977422 ] ] ] } },
{ "type": "Feature", "properties": { "Id": 0 }, "geometry": { "type": "Polygon", "coordinates": [ [ [ 74.427974386306488, 31.610532845907159 ], [ 74.427930014843895, 31.610531912132949 ], [ 74.427926354762576, 31.610662244970172 ], [ 74.427971877467442, 31.610662203832458 ], [ 74.427974386306488, 31.610532845907159 ] ] ] } },
{ "type": "Feature", "properties": { "Id": 0 }, "geometry": { "type": "Polygon", "coordinates": [ [ [ 74.427858516468703, 31.610621817076282 ], [ 74.427842209582053, 31.610622847981261 ], [ 74.427844165097213, 31.610648247594511 ], [ 74.4278603498107, 31.610648019014903 ], [ 74.427858516468703, 31.610621817076282 ] ] ] } },
{ "type": "Feature", "properties": { "Id": 0 }, "geometry": { "type": "Polygon", "coordinates": [ [ [ 74.42895782749369, 31.61058208457143 ], [ 74.428793218581148, 31.610579434344707 ], [ 74.42879057833224, 31.610718776163374 ], [ 74.428953859493745, 31.610719123421429 ], [ 74.42895782749369, 31.61058208457143 ] ] ] } },
{ "type": "Feature", "properties": { "Id": 0 }, "geometry": { "type": "Polygon", "coordinates": [ [ [ 74.428853841501535, 31.610749054702012 ], [ 74.428787509292476, 31.610749228509661 ], [ 74.428786757305843, 31.61084237094575 ], [ 74.428852350915037, 31.610843134702932 ], [ 74.428853841501535, 31.610749054702012 ] ] ] } },
{ "type": "Feature", "properties": { "Id": 0 }, "geometry": { "type": "Polygon", "coordinates": [ [ [ 74.428550135225947, 31.610768679586386 ], [ 74.428516902292728, 31.610772206160256 ], [ 74.428518254448605, 31.6107851981298 ], [ 74.428551196598988, 31.61078240530675 ], [ 74.428550135225947, 31.610768679586386 ] ] ] } }
]
}
