{
"type": "FeatureCollection",
"name": "F:\\MOEED\\CB_1\\Topography CB_1\\Kela\\Green Belt.geojson",
"crs": { "type": "name", "properties": { "name": "urn:ogc:def:crs:OGC:1.3:CRS84" } },
"features": [
{ "type": "Feature", "properties": { "Id": 0 }, "geometry": { "type": "Polygon", "coordinates": [ [ [ 74.430778233836264, 31.6110012259348 ], [ 74.430778440433642, 31.6110012259348 ], [ 74.430975446301261, 31.61100000287864 ], [ 74.430977638811655, 31.610855166314259 ], [ 74.43097659377726, 31.610710319834627 ], [ 74.430972229832761, 31.610696522646361 ], [ 74.430965162930008, 31.610683570521807 ], [ 74.43095560156479, 31.610671850538022 ], [ 74.430943831442818, 31.610661708614042 ], [ 74.430930200731737, 31.610653447640747 ], [ 74.430915114883121, 31.610647312120204 ], [ 74.430899021895513, 31.610643484491263 ], [ 74.430882399702384, 31.610642078757923 ], [ 74.430864769893176, 31.610644445210635 ], [ 74.430847803536651, 31.610649182935365 ], [ 74.43083193466191, 31.610656171164944 ], [ 74.430817569180391, 31.610665232167548 ], [ 74.430805070110367, 31.610676133887317 ], [ 74.430794758576326, 31.61068859897096 ], [ 74.430786896908572, 31.610702310105658 ], [ 74.430781685436585, 31.61071691722243 ], [ 74.430779257157369, 31.610732047396738 ], [ 74.430778233836264, 31.6110012259348 ] ] ] } },
{ "type": "Feature", "properties": { "Id": 0 }, "geometry": { "type": "Polygon", "coordinates": [ [ [ 74.430784623199187, 31.609745175495377 ], [ 74.430784226021842, 31.609834448970354 ], [ 74.430782484005604, 31.610225995939999 ], [ 74.430784454340454, 31.610289935780376 ], [ 74.430789746892756, 31.610304101609266 ], [ 74.430797831900733, 31.610317266692885 ], [ 74.430808464051196, 31.610329031157903 ], [ 74.430821319754969, 31.610339038088405 ], [ 74.43083601079141, 31.610346983511274 ], [ 74.430852089513493, 31.610352627246137 ], [ 74.430869068850612, 31.610355797505463 ], [ 74.430886432812414, 31.610356397257092 ], [ 74.430903655431976, 31.610354409721996 ], [ 74.430920213443983, 31.610349893919615 ], [ 74.4309356052444, 31.610342987458957 ], [ 74.430949362525411, 31.610333900274917 ], [ 74.430961068235604, 31.610322908392771 ], [ 74.430970367182582, 31.610310344050788 ], [ 74.430976977667669, 31.610296589436548 ], [ 74.430980697898974, 31.610282062279929 ], [ 74.430985343471988, 31.610010373255665 ], [ 74.43098360996963, 31.609738659411029 ], [ 74.430980805112, 31.609725756947789 ], [ 74.430975592138722, 31.609713413957557 ], [ 74.430968111376657, 31.609701958569747 ], [ 74.430958558135828, 31.609691692092259 ], [ 74.430947186942618, 31.609682886323501 ], [ 74.43093429788442, 31.609675775371809 ], [ 74.430920232447733, 31.60967054661478 ], [ 74.43090536298709, 31.609667338847967 ], [ 74.430890081167291, 31.609666235917821 ], [ 74.430871244380697, 31.609668092656367 ], [ 74.430853059307708, 31.609672689621071 ], [ 74.430836066540891, 31.609679891182008 ], [ 74.430820771313151, 31.609689482156735 ], [ 74.430807627619089, 31.609701178566318 ], [ 74.43079702658568, 31.609714632996535 ], [ 74.43078928164762, 31.609729445358436 ], [ 74.430784623199187, 31.609745175495377 ] ] ] } },
{ "type": "Feature", "properties": { "Id": 0 }, "geometry": { "type": "Polygon", "coordinates": [ [ [ 74.430900152793001, 31.609407948678047 ], [ 74.430929268581991, 31.609407247894612 ], [ 74.430986704267326, 31.609398925493924 ], [ 74.431042228609968, 31.609383844168836 ], [ 74.431094759229183, 31.609362296832405 ], [ 74.431139187623586, 31.609339085791881 ], [ 74.431179850822588, 31.609311277414509 ], [ 74.431216103071748, 31.609279310914452 ], [ 74.431247368823193, 31.60924369619169 ], [ 74.431273150213599, 31.609204997625273 ], [ 74.431293038676728, 31.60916383141781 ], [ 74.431306717144778, 31.60912085026742 ], [ 74.43131396956305, 31.609076738898928 ], [ 74.431315381455292, 31.609030734840541 ], [ 74.431310093523749, 31.608984937333872 ], [ 74.431298187889908, 31.608940059494966 ], [ 74.431279850084678, 31.608896798659419 ], [ 74.431255365950918, 31.608855825542115 ], [ 74.431225114296353, 31.608817778791359 ], [ 74.431187934921709, 31.608781882743532 ], [ 74.431145545560256, 31.608750499828218 ], [ 74.431098687155, 31.608724179181348 ], [ 74.431048179193724, 31.608703381872168 ], [ 74.430994906065223, 31.608688470918214 ], [ 74.430939799160555, 31.608679707597176 ], [ 74.430890264604258, 31.608677231366087 ], [ 74.430840702629084, 31.608679262468261 ], [ 74.430791671040424, 31.608685779931708 ], [ 74.430743723751021, 31.608696709537135 ], [ 74.430688693215657, 31.608718536105147 ], [ 74.430637662441782, 31.608746589533119 ], [ 74.430591586580562, 31.608780345384673 ], [ 74.430551330779892, 31.608819171459185 ], [ 74.430517647980466, 31.608862338519049 ], [ 74.430491170372221, 31.608909038295376 ], [ 74.430473655439471, 31.608956313944891 ], [ 74.430463748667435, 31.609005178936645 ], [ 74.430461629448061, 31.60905474087787 ], [ 74.430467339150908, 31.609104094128018 ], [ 74.430480771524316, 31.609152337800147 ], [ 74.430501682083275, 31.60919859204299 ], [ 74.430529689085787, 31.609242010676279 ], [ 74.430564724313285, 31.609281851769321 ], [ 74.430605739750533, 31.609317267974316 ], [ 74.430651979265591, 31.609347607221522 ], [ 74.430702591278731, 31.609372309944419 ], [ 74.430756645547547, 31.609390922688288 ], [ 74.430813145796122, 31.609403101775786 ], [ 74.430871037929691, 31.609408649432584 ], [ 74.430900152793001, 31.609407948678047 ] ] ] } },
{ "type": "Feature", "properties": { "Id": 0 }, "geometry": { "type": "Polygon", "coordinates": [ [ [ 74.427953978123725, 31.609015652950387 ], [ 74.427952798657586, 31.609015962541687 ], [ 74.427951697241355, 31.609016438490404 ], [ 74.427950706637915, 31.609017067409948 ], [ 74.427949855421005, 31.609017831383937 ], [ 74.427949167975143, 31.609018707966296 ], [ 74.427948664484575, 31.60901967198518 ], [ 74.427948359884638, 31.609020694636719 ], [ 74.427948261731274, 31.609021747083727 ], [ 74.427948374428837, 31.609022798670619 ], [ 74.427948693948125, 31.609023818703974 ], [ 74.427949212043103, 31.609024776471486 ], [ 74.427949912006611, 31.609025645734057 ], [ 74.427950773963246, 31.609026401140643 ], [ 74.427951772750191, 31.609027020023099 ], [ 74.427952881068606, 31.60902748421487 ], [ 74.427954064201558, 31.609027781831603 ], [ 74.428702893329699, 31.609030013594694 ], [ 74.429008609975597, 31.609032456923657 ], [ 74.429040538719605, 31.60903446813839 ], [ 74.429071818941068, 31.609040308160061 ], [ 74.429101825148066, 31.609049859612011 ], [ 74.429129961811512, 31.609062932172534 ], [ 74.429148479749628, 31.609075304926371 ], [ 74.429165027345078, 31.609089577060054 ], [ 74.42916517519464, 31.609089707639946 ], [ 74.429165345314502, 31.609089816666206 ], [ 74.429165533509945, 31.609089900511186 ], [ 74.429165734526421, 31.609089956444709 ], [ 74.42916594520139, 31.609089984452723 ], [ 74.429166157106707, 31.609089983595272 ], [ 74.429166366031083, 31.609089952951379 ], [ 74.429166566698015, 31.609089893399659 ], [ 74.429166753825498, 31.609089806720906 ], [ 74.429166922126001, 31.60908969559819 ], [ 74.429167066306505, 31.609089563616735 ], [ 74.429167184247603, 31.609089412571411 ], [ 74.429167272759159, 31.609089246959144 ], [ 74.429167328651062, 31.609089071276653 ], [ 74.429168851396909, 31.608969266432343 ], [ 74.429168704120045, 31.608969042024469 ], [ 74.42916851452658, 31.608968841787302 ], [ 74.429168288908684, 31.608968671162337 ], [ 74.429168033558511, 31.608968535590918 ], [ 74.429167753725054, 31.608968438705414 ], [ 74.429167459933794, 31.608968383259448 ], [ 74.429167159553103, 31.608968371090448 ], [ 74.429166861016569, 31.608968402236108 ], [ 74.429166571709075, 31.60896847582719 ], [ 74.429166302189174, 31.608968589204213 ], [ 74.429166057738811, 31.608968740586338 ], [ 74.42916584682466, 31.608968924598152 ], [ 74.429133615197884, 31.608989946551731 ], [ 74.429098884222299, 31.609007819417055 ], [ 74.429085967676954, 31.609013197540467 ], [ 74.429072339169792, 31.609017079311926 ], [ 74.42905823314112, 31.609019399015075 ], [ 74.429043893365048, 31.609020116237495 ], [ 74.428888405195437, 31.609020290857327 ], [ 74.428648603506005, 31.609019864428905 ], [ 74.428491085788636, 31.609019375379827 ], [ 74.428310673760052, 31.609018136781714 ], [ 74.428112395951771, 31.609017034472853 ], [ 74.427953978123725, 31.609015652950387 ] ] ] } },
{ "type": "Feature", "properties": { "Id": 0 }, "geometry": { "type": "Polygon", "coordinates": [ [ [ 74.430775875719064, 31.608359846907483 ], [ 74.430781587480126, 31.608376655396722 ], [ 74.430790231512447, 31.608392518798304 ], [ 74.430801604494619, 31.608407067199067 ], [ 74.430815441785853, 31.608419959283314 ], [ 74.430838038601209, 31.608428520961777 ], [ 74.430861981865178, 31.608433756749111 ], [ 74.43088660828974, 31.608435522943577 ], [ 74.43090307654586, 31.608432535094835 ], [ 74.430918896614571, 31.608427614514518 ], [ 74.430933763245974, 31.608420856380153 ], [ 74.430947384669864, 31.608412392920279 ], [ 74.43095949738202, 31.608402388969346 ], [ 74.43096568515648, 31.608396405967021 ], [ 74.430970724131754, 31.608389679833458 ], [ 74.430974494212904, 31.608382369726083 ], [ 74.430976904723678, 31.608374651173374 ], [ 74.430977900786687, 31.608366707080954 ], [ 74.430977455954761, 31.608358725894313 ], [ 74.430962471155169, 31.608276587187586 ], [ 74.430941659289473, 31.608195384281785 ], [ 74.430915099717453, 31.60811541796599 ], [ 74.430882889730057, 31.608036987303965 ], [ 74.430844798179862, 31.607954247603413 ], [ 74.430800795120646, 31.607873683860138 ], [ 74.430751049460085, 31.607795606281222 ], [ 74.430741296215913, 31.607785153038069 ], [ 74.430729709147514, 31.607776175768148 ], [ 74.430716588352183, 31.607768905873769 ], [ 74.430702275303545, 31.607763531635161 ], [ 74.430687139174722, 31.607760193638754 ], [ 74.43067157372522, 31.607758976643218 ], [ 74.430655981460802, 31.607759914020068 ], [ 74.430640767352486, 31.607762980507786 ], [ 74.430626326158958, 31.607768096666664 ], [ 74.430613029770967, 31.607775129724399 ], [ 74.430601226135281, 31.607783897180106 ], [ 74.430590492572421, 31.607794389029994 ], [ 74.430581817277769, 31.607806193757611 ], [ 74.430575417101309, 31.607819017305182 ], [ 74.430571451050454, 31.607832542801496 ], [ 74.43057001605672, 31.607846433249865 ], [ 74.43057114900698, 31.607860344168017 ], [ 74.430574820374403, 31.607873930777391 ], [ 74.430580940504925, 31.607886854346869 ], [ 74.430629234277362, 31.607960450523215 ], [ 74.430672351514858, 31.608036364861356 ], [ 74.430710500940805, 31.608126205315326 ], [ 74.430743091362103, 31.608217634146769 ], [ 74.4307700336295, 31.608310400146312 ], [ 74.430775875719064, 31.608359846907483 ] ] ] } },
{ "type": "Feature", "properties": { "Id": 0 }, "geometry": { "type": "Polygon", "coordinates": [ [ [ 74.426222135826151, 31.607086391504357 ], [ 74.426213724921965, 31.607088531666474 ], [ 74.426209340274355, 31.607090396286782 ], [ 74.426198008936311, 31.607095215063648 ], [ 74.426183861789823, 31.607104103305986 ], [ 74.426171702557582, 31.607114933927107 ], [ 74.426161890581312, 31.607127386450649 ], [ 74.426154714861084, 31.60714109316875 ], [ 74.426150388723499, 31.607155649042838 ], [ 74.426149039202386, 31.607170624286546 ], [ 74.426150706966581, 31.607185576094295 ], [ 74.426155340965948, 31.607200062150628 ], [ 74.426162805721688, 31.607213655098079 ], [ 74.426172881259944, 31.607225953363859 ], [ 74.426185268310519, 31.607236592911946 ], [ 74.426199601939203, 31.607245259033185 ], [ 74.426215457806506, 31.60725169720018 ], [ 74.426232366909531, 31.607255715840193 ], [ 74.426657411610989, 31.607258381312963 ], [ 74.427339286487992, 31.607261966068997 ], [ 74.427894002152016, 31.607264451735084 ], [ 74.428438273019822, 31.607267414249289 ], [ 74.42894629914322, 31.607270212415123 ], [ 74.429338215739421, 31.607273540976976 ], [ 74.429406133971312, 31.607273059454709 ], [ 74.429473849876189, 31.607277577980391 ], [ 74.429540859753715, 31.607287063629549 ], [ 74.42965023817672, 31.607305217462134 ], [ 74.42975796066024, 31.60732956835394 ], [ 74.429863548226081, 31.607360006807504 ], [ 74.429956183203586, 31.607395912547577 ], [ 74.430046143698206, 31.607436494205942 ], [ 74.430133109073381, 31.607481606003123 ], [ 74.430213301378572, 31.607530500297489 ], [ 74.430288616869234, 31.607584779776239 ], [ 74.43030209362189, 31.607592273247292 ], [ 74.430316801961126, 31.607597818910239 ], [ 74.430332357971579, 31.607601273404416 ], [ 74.43034836160075, 31.607602546528209 ], [ 74.430364395582927, 31.607601604843051 ], [ 74.43037944170068, 31.607598769508595 ], [ 74.430393780942836, 31.607593947045459 ], [ 74.43040705730715, 31.607587257665632 ], [ 74.430418941925723, 31.6075788668131 ], [ 74.430429140461001, 31.607568982490108 ], [ 74.430437397344363, 31.607557851667153 ], [ 74.430444005684151, 31.607542178048988 ], [ 74.430447827575321, 31.607525838801163 ], [ 74.430448778585045, 31.607509196238624 ], [ 74.430446837509706, 31.607492616566994 ], [ 74.430446731137366, 31.607489136242343 ], [ 74.430446010884708, 31.607485710020129 ], [ 74.430444691032505, 31.607482416456943 ], [ 74.430442804847814, 31.607479332389488 ], [ 74.430440394075063, 31.607476527474581 ], [ 74.43043751523372, 31.60747406872829 ], [ 74.430325188846595, 31.607389783459123 ], [ 74.430224801155234, 31.607333264740351 ], [ 74.430121406140998, 31.607280864679545 ], [ 74.430051679275763, 31.607248747733049 ], [ 74.429979961485515, 31.60722002141733 ], [ 74.429906475706133, 31.607194776043496 ], [ 74.429778632757802, 31.607159004519058 ], [ 74.429648563043401, 31.60712969362368 ], [ 74.429529788600618, 31.607114664609639 ], [ 74.429410180181733, 31.607105708190399 ], [ 74.429290160302045, 31.607102856926552 ], [ 74.428871070413294, 31.607098964643527 ], [ 74.428479886990502, 31.607096541955251 ], [ 74.428090277443644, 31.607093788588799 ], [ 74.427630471226038, 31.607093143768736 ], [ 74.427170697985005, 31.607088321982559 ], [ 74.426799165798286, 31.607086991851165 ], [ 74.426358440550288, 31.607085013398162 ], [ 74.426247976188492, 31.607082499017377 ], [ 74.426230546789569, 31.607084251326501 ], [ 74.426222135826151, 31.607086391504357 ] ] ] } },
{ "type": "Feature", "properties": { "Id": 0 }, "geometry": { "type": "Polygon", "coordinates": [ [ [ 74.426098215024311, 31.607082425323 ], [ 74.426080998645332, 31.607082447215102 ], [ 74.426064024537041, 31.607084907080456 ], [ 74.426047759076255, 31.607089736641758 ], [ 74.426032652166157, 31.607096803490595 ], [ 74.4260191193098, 31.607105911908985 ], [ 74.426007535235499, 31.607116810960608 ], [ 74.425997982190196, 31.607130184895794 ], [ 74.425991274386064, 31.607144771563917 ], [ 74.425987613770559, 31.607160130689046 ], [ 74.42598710860247, 31.607175799920764 ], [ 74.425989775482634, 31.607191307474555 ], [ 74.425995535037288, 31.607206188351896 ], [ 74.426004735799964, 31.607218447513421 ], [ 74.426016064005253, 31.607229324113796 ], [ 74.426029239814909, 31.607238551643334 ], [ 74.426043939930736, 31.607245902192517 ], [ 74.426059802810471, 31.607251195497444 ], [ 74.426076436035771, 31.607254300777587 ], [ 74.426093433151721, 31.60725514132243 ], [ 74.426079982174286, 31.607231823549231 ], [ 74.426071064264661, 31.607206964405119 ], [ 74.426066912691383, 31.607181203708517 ], [ 74.426067631957565, 31.607155205960765 ], [ 74.426073205291473, 31.607129642335494 ], [ 74.426083487383849, 31.607105171699555 ], [ 74.426098215024311, 31.607082425323 ] ] ] } },
{ "type": "Feature", "properties": { "Id": 0 }, "geometry": { "type": "Polygon", "coordinates": [ [ [ 74.433785002348785, 31.609042736428016 ], [ 74.433433993984892, 31.609039888014831 ], [ 74.433101850129276, 31.60903841433683 ], [ 74.432758885735353, 31.609037106470787 ], [ 74.432725764802498, 31.609033318034371 ], [ 74.432693639563595, 31.60902544877403 ], [ 74.432663191078049, 31.609013668625568 ], [ 74.432635067253429, 31.608998224968907 ], [ 74.432620028824445, 31.608988467459547 ], [ 74.43261800068025, 31.608991043301742 ], [ 74.432615330229652, 31.609099350684026 ], [ 74.432622393743031, 31.60909636685134 ], [ 74.432664551071682, 31.609074158377044 ], [ 74.432702891500995, 31.60905882406847 ], [ 74.43272380761519, 31.609053748161354 ], [ 74.432746974839105, 31.609051051469166 ], [ 74.432786481265566, 31.609051011279174 ], [ 74.432917326804414, 31.609051377522075 ], [ 74.433157877009506, 31.60905287560271 ], [ 74.43340270803499, 31.609053746232071 ], [ 74.433711450809099, 31.609055115383992 ], [ 74.43378492675447, 31.609055226383145 ], [ 74.4337861294606, 31.609054906014244 ], [ 74.433787253057631, 31.609054418384538 ], [ 74.433788264788888, 31.609053775979842 ], [ 74.433789136076257, 31.609052997620061 ], [ 74.433789842542055, 31.609052104850328 ], [ 74.433790363998156, 31.609051123745459 ], [ 74.433790685521885, 31.609050081305785 ], [ 74.433790797445312, 31.609049007261625 ], [ 74.433790698528526, 31.609047932282859 ], [ 74.433790389640137, 31.609046887048741 ], [ 74.433789880087701, 31.609045901373598 ], [ 74.433789184466306, 31.609045002388719 ], [ 74.433788322647359, 31.609044216346458 ], [ 74.43378731874644, 31.609043565006882 ], [ 74.433785002348785, 31.609042736428016 ] ] ] } },
{ "type": "Feature", "properties": { "Id": 0 }, "geometry": { "type": "Polygon", "coordinates": [ [ [ 74.435009074507406, 31.609054900724242 ], [ 74.435009074507406, 31.609054900723844 ], [ 74.435009019496306, 31.609053710456656 ], [ 74.435008727126458, 31.609052546205806 ], [ 74.435008203510606, 31.609051443185045 ], [ 74.435007466379489, 31.60905043305042 ], [ 74.435006536631846, 31.609049546569743 ], [ 74.435005442567686, 31.609048810934691 ], [ 74.435004216736431, 31.609048247942429 ], [ 74.435002894888342, 31.609047873088802 ], [ 74.434415511900724, 31.609044937951989 ], [ 74.434194503145235, 31.609043959160051 ], [ 74.434119067430444, 31.609043624986786 ], [ 74.434117985141995, 31.609044429480548 ], [ 74.434117070674318, 31.609045375463648 ], [ 74.434116349491987, 31.609046435982354 ], [ 74.43411584073435, 31.609047584054977 ], [ 74.434115559351213, 31.609048788170146 ], [ 74.434115510815531, 31.609050014970084 ], [ 74.434115698486323, 31.609051231989859 ], [ 74.434116116240361, 31.609052405820346 ], [ 74.434116752666981, 31.609053505735609 ], [ 74.434117592133248, 31.609054501893173 ], [ 74.434118609502065, 31.609055367115239 ], [ 74.434119778560301, 31.609056077828026 ], [ 74.434371402655174, 31.609057192324862 ], [ 74.434634822220971, 31.609058358535265 ], [ 74.434888403249843, 31.609060825880782 ], [ 74.435004783749363, 31.609060668564542 ], [ 74.435005954673201, 31.609060024147652 ], [ 74.435006977929959, 31.609059217580725 ], [ 74.435007824914535, 31.609058272194911 ], [ 74.435008466994603, 31.609057215832312 ], [ 74.435008888160965, 31.609056080901873 ], [ 74.435009074507406, 31.609054900724242 ] ] ] } }
]
}
