{
"type": "FeatureCollection",
"name": "F:\\MOEED\\CB_1\\Topography CB_1\\Kela\\Park.geojson",
"crs": { "type": "name", "properties": { "name": "urn:ogc:def:crs:OGC:1.3:CRS84" } },
"features": [
{ "type": "Feature", "properties": { "Id": 0 }, "geometry": { "type": "Polygon", "coordinates": [ [ [ 74.433360952777733, 31.609591284020063 ], [ 74.433347535790048, 31.609619401013799 ], [ 74.433284465975731, 31.609755900583075 ], [ 74.433206307337542, 31.609905651068676 ], [ 74.433122898663242, 31.610049779044441 ], [ 74.43307385402575, 31.610128809376246 ], [ 74.433009399916145, 31.610217676722748 ], [ 74.433009025012879, 31.61021795745236 ], [ 74.433008711991079, 31.610218290785223 ], [ 74.433008471469421, 31.610218664137463 ], [ 74.433008309827898, 31.610219068515189 ], [ 74.433008233473828, 31.610219490413655 ], [ 74.433008242483723, 31.610219917202137 ], [ 74.433008339042601, 31.610220336259253 ], [ 74.433008519015615, 31.610220734033483 ], [ 74.433008777197344, 31.61022109967508 ], [ 74.433009105225096, 31.610221421418121 ], [ 74.433009493671179, 31.610221689296338 ], [ 74.433009930982919, 31.610221896040738 ], [ 74.433010402445106, 31.610222034368256 ], [ 74.433010895434478, 31.610222099711766 ], [ 74.433011394137836, 31.610222092001106 ], [ 74.43301188380714, 31.610222009366375 ], [ 74.433012349661496, 31.610221855350819 ], [ 74.433012776909123, 31.610221635302025 ], [ 74.433013152866621, 31.610221354577078 ], [ 74.433036265137929, 31.610206813281227 ], [ 74.433059377371521, 31.610192272000319 ], [ 74.433123524764056, 31.610154009501425 ], [ 74.433241898997366, 31.610094883843814 ], [ 74.433329966162503, 31.61005414342441 ], [ 74.433336295781174, 31.610047710731635 ], [ 74.433342123840518, 31.610041061085848 ], [ 74.433346438354661, 31.610035050712376 ], [ 74.433354075211412, 31.610020440712606 ], [ 74.433358949973666, 31.610004957744337 ], [ 74.433359993272077, 31.609998931956252 ], [ 74.433359563454914, 31.609986871021075 ], [ 74.433358589915514, 31.609898359243342 ], [ 74.433360940856943, 31.609759469799318 ], [ 74.433362034359703, 31.609620360948615 ], [ 74.433360952777733, 31.609591284020063 ] ] ] } },
{ "type": "Feature", "properties": { "Id": 0 }, "geometry": { "type": "Polygon", "coordinates": [ [ [ 74.43346319617504, 31.609859744474914 ], [ 74.433462547754473, 31.609966814238661 ], [ 74.433463617856191, 31.609968790383764 ], [ 74.433465053686092, 31.609970588694186 ], [ 74.433466816021408, 31.609972160045253 ], [ 74.433468856720239, 31.609973461512123 ], [ 74.433471120036486, 31.609974457542442 ], [ 74.433473544142842, 31.609975120927519 ], [ 74.433476062819636, 31.60997543354555 ], [ 74.433478607263808, 31.609975386856718 ], [ 74.433481107968404, 31.609974982136428 ], [ 74.43356689100959, 31.609949550117204 ], [ 74.433653929047637, 31.609927460829621 ], [ 74.433742044333314, 31.609908759384417 ], [ 74.433809809500247, 31.609895541881382 ], [ 74.433878182674221, 31.609884861094269 ], [ 74.433879177967768, 31.609862323896316 ], [ 74.43346319617504, 31.609859744474914 ] ] ] } },
{ "type": "Feature", "properties": { "Id": 0 }, "geometry": { "type": "Polygon", "coordinates": [ [ [ 74.433922794390185, 31.607974265114137 ], [ 74.433866863952247, 31.608031850148766 ], [ 74.433807046809392, 31.608086499388786 ], [ 74.43370354464048, 31.608173541235249 ], [ 74.433615331217112, 31.608233992878446 ], [ 74.433572487134384, 31.608264675108 ], [ 74.433569169803818, 31.608267549028668 ], [ 74.433566459199639, 31.608270856308348 ], [ 74.433564431297071, 31.608274504247767 ], [ 74.433563142935995, 31.608278390599285 ], [ 74.433562630227826, 31.60828240643291 ], [ 74.433562907543276, 31.608286439189342 ], [ 74.433562925035815, 31.608288142469043 ], [ 74.433563262004839, 31.608289821224908 ], [ 74.433563909698492, 31.608291431855658 ], [ 74.433564851294634, 31.608292932529455 ], [ 74.433566062337832, 31.608294284270237 ], [ 74.43356751137442, 31.608295451970122 ], [ 74.433569160769551, 31.608296405301196 ], [ 74.433570967684531, 31.608297119503209 ], [ 74.433572885189506, 31.60829757602664 ], [ 74.433574863482377, 31.608297763014502 ], [ 74.433978243062739, 31.608300041161478 ], [ 74.434357860613687, 31.608302212811989 ], [ 74.434379188278683, 31.608278785569077 ], [ 74.434326961663118, 31.60825135734401 ], [ 74.434216206923736, 31.608175425513778 ], [ 74.434072540092131, 31.608076929308815 ], [ 74.433922794390185, 31.607974265114137 ] ] ] } },
{ "type": "Feature", "properties": { "Id": 0 }, "geometry": { "type": "Polygon", "coordinates": [ [ [ 74.432469381727714, 31.607981683811772 ], [ 74.432288850221269, 31.608008813574841 ], [ 74.432288818999211, 31.608013958804282 ], [ 74.432364721514332, 31.60810274745582 ], [ 74.432436619091831, 31.608191028231921 ], [ 74.432483154424759, 31.608259839902068 ], [ 74.432504995125967, 31.608293504338434 ], [ 74.432514429316143, 31.608295751409848 ], [ 74.432636983675494, 31.6082926205614 ], [ 74.432773253203393, 31.608293960816301 ], [ 74.433001709571386, 31.608295465149066 ], [ 74.433211852304538, 31.608295417707168 ], [ 74.433184382038519, 31.608245802268836 ], [ 74.433126328038824, 31.608140677135736 ], [ 74.433101698485828, 31.608094749549075 ], [ 74.432985179923222, 31.608141275743467 ], [ 74.432823147146181, 31.608186619672381 ], [ 74.432711361993171, 31.608207929826218 ], [ 74.432573831523769, 31.608225695272189 ], [ 74.432494781391782, 31.608230979491385 ], [ 74.432479894328296, 31.60823091334942 ], [ 74.432476479660096, 31.608227467932693 ], [ 74.432477415803135, 31.608195855030161 ], [ 74.432473828707003, 31.608152872818714 ], [ 74.432473124106394, 31.608125748845222 ], [ 74.432473898607924, 31.608101189154759 ], [ 74.432469787167676, 31.608056735856294 ], [ 74.432469661360273, 31.608033447315361 ], [ 74.432469381727714, 31.607981683811772 ] ] ] } },
{ "type": "Feature", "properties": { "Id": 0 }, "geometry": { "type": "Polygon", "coordinates": [ [ [ 74.432840124137044, 31.606708504202015 ], [ 74.432839022756596, 31.60670654264602 ], [ 74.432837556693528, 31.606704764468887 ], [ 74.432835766509982, 31.606703218868162 ], [ 74.432833701735746, 31.606701948606606 ], [ 74.432831419497745, 31.606700988829054 ], [ 74.432828982939583, 31.606700366090067 ], [ 74.432826459474498, 31.606700097619189 ], [ 74.432823918920207, 31.606700190844347 ], [ 74.432821431567262, 31.606700643186215 ], [ 74.432819066234231, 31.60670144212969 ], [ 74.43281688836376, 31.606702565570068 ], [ 74.43281495821185, 31.606703982424669 ], [ 74.432500935597773, 31.606886105878733 ], [ 74.432498601295521, 31.606888291529618 ], [ 74.43249669260004, 31.606890761296018 ], [ 74.432495255964866, 31.606893455069219 ], [ 74.432494326354615, 31.60689630728865 ], [ 74.432493926394002, 31.606899248537513 ], [ 74.432494065817252, 31.606902207232235 ], [ 74.432494741231139, 31.606905111364629 ], [ 74.43249593619764, 31.606907890254387 ], [ 74.432568572562872, 31.607015484117287 ], [ 74.432637229440132, 31.607124975117699 ], [ 74.432723494179953, 31.607284236864022 ], [ 74.432725353068108, 31.607286700384361 ], [ 74.43272763541033, 31.607288887739223 ], [ 74.432730286110242, 31.607290746125216 ], [ 74.432733241179164, 31.607292230680347 ], [ 74.432736429280823, 31.607293305566987 ], [ 74.432739773453505, 31.607293944837043 ], [ 74.43274823652753, 31.607295685020961 ], [ 74.432756893280597, 31.607296459406854 ], [ 74.43276559390371, 31.607296254593638 ], [ 74.432769104310921, 31.607295784562133 ], [ 74.432772494003942, 31.60729487296857 ], [ 74.432775687594599, 31.607293540087184 ], [ 74.432778614056076, 31.607291815561812 ], [ 74.432781208302686, 31.607289737746616 ], [ 74.432824262617174, 31.607254224872289 ], [ 74.432861680013772, 31.607214307399211 ], [ 74.432892850795696, 31.607170635769393 ], [ 74.432917267054904, 31.607123921596738 ], [ 74.432936781831415, 31.60708104875269 ], [ 74.432950968743327, 31.607036668626971 ], [ 74.432959673244795, 31.606991264700589 ], [ 74.432956239083495, 31.606935314704451 ], [ 74.432947375737996, 31.606879803440329 ], [ 74.432935012423343, 31.60684850262173 ], [ 74.432918993181545, 31.606818440357081 ], [ 74.432898712090918, 31.606788925410147 ], [ 74.432862679948769, 31.606736489173208 ], [ 74.432840124137044, 31.606708504202015 ] ] ] } },
{ "type": "Feature", "properties": { "Id": 0 }, "geometry": { "type": "Polygon", "coordinates": [ [ [ 74.432354426830628, 31.607286808594736 ], [ 74.432196541597861, 31.607356549421286 ], [ 74.432236883084187, 31.607373730034737 ], [ 74.432279183073078, 31.60738702014801 ], [ 74.432322931134522, 31.607396259390232 ], [ 74.432367599364085, 31.607401336272083 ], [ 74.432424444704949, 31.607403751226229 ], [ 74.432481288930305, 31.607401317109456 ], [ 74.432537568688261, 31.607394058044868 ], [ 74.432592726221202, 31.60738204597293 ], [ 74.432628588721144, 31.607369571551942 ], [ 74.432589663067375, 31.60729704189901 ], [ 74.432397755854353, 31.607370843082848 ], [ 74.432354426830628, 31.607286808594736 ] ] ] } },
{ "type": "Feature", "properties": { "Id": 0 }, "geometry": { "type": "Polygon", "coordinates": [ [ [ 74.434715570459673, 31.607992745640928 ], [ 74.434965867698068, 31.608005226734615 ], [ 74.434965922837193, 31.60800043587917 ], [ 74.434967539008426, 31.607732835508841 ], [ 74.434970128009553, 31.60760299084837 ], [ 74.434970336703586, 31.607473127536171 ], [ 74.434971426663651, 31.607422870741207 ], [ 74.434963563514088, 31.607422835959074 ], [ 74.434929412765243, 31.607533951723592 ], [ 74.434891849054623, 31.607644259328602 ], [ 74.434846246426105, 31.607750102368964 ], [ 74.434796218560109, 31.60785447233804 ], [ 74.434757759931429, 31.607924406232705 ], [ 74.434736665304413, 31.60795857581304 ], [ 74.434715570459673, 31.607992745640928 ] ] ] } },
{ "type": "Feature", "properties": { "Id": 0 }, "geometry": { "type": "Polygon", "coordinates": [ [ [ 74.428543311709305, 31.609893799218611 ], [ 74.428462803055339, 31.609891524805313 ], [ 74.42847022247544, 31.610141552301382 ], [ 74.428676439908486, 31.610143240537472 ], [ 74.428688112740829, 31.610136401634513 ], [ 74.428655245995202, 31.610097587818004 ], [ 74.428543311709305, 31.609893799218611 ] ] ] } },
{ "type": "Feature", "properties": { "Id": 0 }, "geometry": { "type": "Polygon", "coordinates": [ [ [ 74.433058165846703, 31.609183904247654 ], [ 74.432757561569275, 31.60918207962078 ], [ 74.432752259090535, 31.609181639968458 ], [ 74.432746942583876, 31.609181930129505 ], [ 74.4327417483196, 31.609182942666603 ], [ 74.432736809434857, 31.609184651626887 ], [ 74.43273225252095, 31.609187013207006 ], [ 74.43272819437874, 31.609189966875967 ], [ 74.432724739024806, 31.609193436926653 ], [ 74.432721975025359, 31.609197334416194 ], [ 74.432719973226128, 31.609201559445829 ], [ 74.432718784936469, 31.609206003721408 ], [ 74.432718440614252, 31.609210553329117 ], [ 74.432710020134621, 31.609269633752799 ], [ 74.432949833702253, 31.609296621451442 ], [ 74.433033371853767, 31.609306792981371 ], [ 74.433058165846703, 31.609183904247654 ] ] ] } }
]
}
