{
  "type": "FeatureCollection",
  "name": "F:\\MOEED\\CB_1\\Topography CB_1\\Kela\\Builtup.geojson",
  "crs": {
    "type": "name",
    "properties": {
      "name": "urn:ogc:def:crs:EPSG::3857"
    }
  },
  "features": [
    {
      "type": "Feature",
      "properties": {
        "Id": 0
      },
      "geometry": {
        "type": "Polygon",
        "coordinates": [
          [
            [
              8285372.962910382,
              3712357.710976332
            ],
            [
              8285368.374051034,
              3712357.590795939
            ],
            [
              8285368.304037552,
              3712364.9246602324
            ],
            [
              8285372.989344107,
              3712364.885211107
            ],
            [
              8285372.962910382,
              3712357.710976332
            ]
          ]
        ]
      }
    },
    {
      "type": "Feature",
      "properties": {
        "Id": 0
      },
      "geometry": {
        "type": "Polygon",
        "coordinates": [
          [
            [
              8285909.251636963,
              3712347.5313336616
            ],
            [
              8285890.968548706,
              3712347.0451612673
            ],
            [
              8285890.642764492,
              3712364.94930317
            ],
            [
              8285908.772277314,
              3712365.0437198286
            ],
            [
              8285909.251636963,
              3712347.5313336616
            ]
          ]
        ]
      }
    },
    {
      "type": "Feature",
      "properties": {
        "Id": 0
      },
      "geometry": {
        "type": "Polygon",
        "coordinates": [
          [
            [
              8285911.111795324,
              3712320.651219746
            ],
            [
              8285906.753136627,
              3712319.155276366
            ],
            [
              8285904.816299898,
              3712323.9172319197
            ],
            [
              8285909.397227756,
              3712325.5744696157
            ],
            [
              8285911.111795324,
              3712320.651219746
            ]
          ]
        ]
      }
    },
    {
      "type": "Feature",
      "properties": {
        "Id": 0
      },
      "geometry": {
        "type": "Polygon",
        "coordinates": [
          [
            [
              8285270.966936383,
              3712017.242892655
            ],
            [
              8285253.787982031,
              3712017.00240559
            ],
            [
              8285253.351552147,
              3712033.863979369
            ],
            [
              8285270.580326576,
              3712034.10472961
            ],
            [
              8285270.966936383,
              3712017.242892655
            ]
          ]
        ]
      }
    },
    {
      "type": "Feature",
      "properties": {
        "Id": 0
      },
      "geometry": {
        "type": "Polygon",
        "coordinates": [
          [
            [
              8285290.456356888,
              3712023.2502343925
            ],
            [
              8285278.505750774,
              3712023.0873119747
            ],
            [
              8285278.022446721,
              3712048.956070963
            ],
            [
              8285283.748780004,
              3712049.036224978
            ],
            [
              8285283.58870693,
              3712051.0870748055
            ],
            [
              8285285.978677272,
              3712051.149683316
            ],
            [
              8285285.760209286,
              3712054.851588498
            ],
            [
              8285289.692829458,
              3712055.122472953
            ],
            [
              8285290.456356888,
              3712023.2502343925
            ]
          ]
        ]
      }
    },
    {
      "type": "Feature",
      "properties": {
        "Id": 0
      },
      "geometry": {
        "type": "Polygon",
        "coordinates": [
          [
            [
              8285303.318229949,
              3712039.6813199036
            ],
            [
              8285296.347511054,
              3712039.4945506845
            ],
            [
              8285296.147319319,
              3712049.2515390078
            ],
            [
              8285302.969175352,
              3712049.337443478
            ],
            [
              8285303.318229949,
              3712039.6813199036
            ]
          ]
        ]
      }
    },
    {
      "type": "Feature",
      "properties": {
        "Id": 0
      },
      "geometry": {
        "type": "Polygon",
        "coordinates": [
          [
            [
              8285319.45727675,
              3712048.373240961
            ],
            [
              8285312.188555099,
              3712048.0347907925
            ],
            [
              8285312.0569254905,
              3712054.1891742563
            ],
            [
              8285319.325911223,
              3712054.4775848156
            ],
            [
              8285319.45727675,
              3712048.373240961
            ]
          ]
        ]
      }
    },
    {
      "type": "Feature",
      "properties": {
        "Id": 0
      },
      "geometry": {
        "type": "Polygon",
        "coordinates": [
          [
            [
              8285272.348498749,
              3712038.817902136
            ],
            [
              8285253.525710649,
              3712038.668850848
            ],
            [
              8285253.250137061,
              3712043.771605582
            ],
            [
              8285255.673005703,
              3712043.621337552
            ],
            [
              8285255.642358284,
              3712045.5888777273
            ],
            [
              8285260.55783864,
              3712045.6352326227
            ],
            [
              8285260.527188626,
              3712043.6878668685
            ],
            [
              8285264.870601914,
              3712043.915682724
            ],
            [
              8285264.860245839,
              3712045.903826605
            ],
            [
              8285269.735893953,
              3712045.7654962344
            ],
            [
              8285269.766645859,
              3712043.7774596396
            ],
            [
              8285272.152517165,
              3712043.89249248
            ],
            [
              8285272.348498749,
              3712038.817902136
            ]
          ]
        ]
      }
    },
    {
      "type": "Feature",
      "properties": {
        "Id": 0
      },
      "geometry": {
        "type": "Polygon",
        "coordinates": [
          [
            [
              8285238.350431688,
              3712037.311954199
            ],
            [
              8285232.550979517,
              3712037.1213033926
            ],
            [
              8285232.045552706,
              3712048.4880101155
            ],
            [
              8285237.845177143,
              3712048.64663589
            ],
            [
              8285238.350431688,
              3712037.311954199
            ]
          ]
        ]
      }
    },
    {
      "type": "Feature",
      "properties": {
        "Id": 0
      },
      "geometry": {
        "type": "Polygon",
        "coordinates": [
          [
            [
              8285318.825005395,
              3711949.789045374
            ],
            [
              8285300.798829305,
              3711949.69429717
            ],
            [
              8285300.405490991,
              3711967.8570718192
            ],
            [
              8285318.6321805455,
              3711967.7026701407
            ],
            [
              8285318.825005395,
              3711949.789045374
            ]
          ]
        ]
      }
    },
    {
      "type": "Feature",
      "properties": {
        "Id": 0
      },
      "geometry": {
        "type": "Polygon",
        "coordinates": [
          [
            [
              8285332.70691256,
              3711952.0137492777
            ],
            [
              8285321.851628176,
              3711951.906667095
            ],
            [
              8285321.372213665,
              3711957.909052474
            ],
            [
              8285332.526800716,
              3711957.917626037
            ],
            [
              8285332.70691256,
              3711952.0137492777
            ]
          ]
        ]
      }
    },
    {
      "type": "Feature",
      "properties": {
        "Id": 0
      },
      "geometry": {
        "type": "Polygon",
        "coordinates": [
          [
            [
              8285321.96965225,
              3711938.7965886914
            ],
            [
              8285307.5791227715,
              3711938.6208744375
            ],
            [
              8285307.454265035,
              3711943.4741773503
            ],
            [
              8285321.846883519,
              3711943.2495762315
            ],
            [
              8285321.96965225,
              3711938.7965886914
            ]
          ]
        ]
      }
    },
    {
      "type": "Feature",
      "properties": {
        "Id": 0
      },
      "geometry": {
        "type": "Polygon",
        "coordinates": [
          [
            [
              8285338.302227348,
              3711938.9824890858
            ],
            [
              8285323.861380318,
              3711938.906611435
            ],
            [
              8285323.689597446,
              3711943.209218994
            ],
            [
              8285337.981061429,
              3711943.2843120904
            ],
            [
              8285338.302227348,
              3711938.9824890858
            ]
          ]
        ]
      }
    },
    {
      "type": "Feature",
      "properties": {
        "Id": 0
      },
      "geometry": {
        "type": "Polygon",
        "coordinates": [
          [
            [
              8285344.678125916,
              3711929.057867874
            ],
            [
              8285340.395150548,
              3711929.1354491482
            ],
            [
              8285339.722881557,
              3711943.4936264707
            ],
            [
              8285344.205306451,
              3711943.367052328
            ],
            [
              8285344.678125916,
              3711929.057867874
            ]
          ]
        ]
      }
    },
    {
      "type": "Feature",
      "properties": {
        "Id": 0
      },
      "geometry": {
        "type": "Polygon",
        "coordinates": [
          [
            [
              8285348.748980618,
              3711941.0390020804
            ],
            [
              8285346.657807498,
              3711940.9779763203
            ],
            [
              8285346.485251671,
              3711945.43070344
            ],
            [
              8285348.726074007,
              3711945.4424745226
            ],
            [
              8285348.748980618,
              3711941.0390020804
            ]
          ]
        ]
      }
    },
    {
      "type": "Feature",
      "properties": {
        "Id": 0
      },
      "geometry": {
        "type": "Polygon",
        "coordinates": [
          [
            [
              8285339.31128302,
              3711917.3201389657
            ],
            [
              8285334.333772237,
              3711916.8936619665
            ],
            [
              8285333.112959986,
              3711931.3990648524
            ],
            [
              8285338.340237627,
              3711931.676732784
            ],
            [
              8285339.31128302,
              3711917.3201389657
            ]
          ]
        ]
      }
    },
    {
      "type": "Feature",
      "properties": {
        "Id": 0
      },
      "geometry": {
        "type": "Polygon",
        "coordinates": [
          [
            [
              8285328.012032034,
              3711916.4100789046
            ],
            [
              8285323.778596605,
              3711916.537955291
            ],
            [
              8285323.55395212,
              3711930.998550703
            ],
            [
              8285327.8872449305,
              3711930.821158228
            ],
            [
              8285328.012032034,
              3711916.4100789046
            ]
          ]
        ]
      }
    },
    {
      "type": "Feature",
      "properties": {
        "Id": 0
      },
      "geometry": {
        "type": "Polygon",
        "coordinates": [
          [
            [
              8285328.8446364375,
              3711899.951068804
            ],
            [
              8285323.117591155,
              3711900.021055895
            ],
            [
              8285323.241778337,
              3711914.433424354
            ],
            [
              8285328.619998522,
              3711914.4116449757
            ],
            [
              8285328.8446364375,
              3711899.951068804
            ]
          ]
        ]
      }
    },
    {
      "type": "Feature",
      "properties": {
        "Id": 0
      },
      "geometry": {
        "type": "Polygon",
        "coordinates": [
          [
            [
              8285322.171469721,
              3711900.016083999
            ],
            [
              8285317.641087727,
              3711899.7921130867
            ],
            [
              8285317.466492922,
              3711914.2029110407
            ],
            [
              8285321.997401062,
              3711914.3268036717
            ],
            [
              8285322.171469721,
              3711900.016083999
            ]
          ]
        ]
      }
    },
    {
      "type": "Feature",
      "properties": {
        "Id": 0
      },
      "geometry": {
        "type": "Polygon",
        "coordinates": [
          [
            [
              8285345.146366921,
              3711896.4838297963
            ],
            [
              8285340.5651485175,
              3711896.459763026
            ],
            [
              8285340.241453427,
              3711910.819733649
            ],
            [
              8285345.07113613,
              3711910.9451872422
            ],
            [
              8285345.146366921,
              3711896.4838297963
            ]
          ]
        ]
      }
    },
    {
      "type": "Feature",
      "properties": {
        "Id": 0
      },
      "geometry": {
        "type": "Polygon",
        "coordinates": [
          [
            [
              8285306.057145224,
              3711896.1783432364
            ],
            [
              8285301.675892079,
              3711896.0051909415
            ],
            [
              8285301.650145309,
              3711910.5168479336
            ],
            [
              8285306.181051845,
              3711910.640746424
            ],
            [
              8285306.057145224,
              3711896.1783432364
            ]
          ]
        ]
      }
    },
    {
      "type": "Feature",
      "properties": {
        "Id": 0
      },
      "geometry": {
        "type": "Polygon",
        "coordinates": [
          [
            [
              8285306.172456202,
              3711912.2920442303
            ],
            [
              8285301.592274126,
              3711912.067805283
            ],
            [
              8285300.770312412,
              3711926.475214062
            ],
            [
              8285305.599479718,
              3711926.7007624134
            ],
            [
              8285306.172456202,
              3711912.2920442303
            ]
          ]
        ]
      }
    },
    {
      "type": "Feature",
      "properties": {
        "Id": 0
      },
      "geometry": {
        "type": "Polygon",
        "coordinates": [
          [
            [
              8285306.088322796,
              3711928.454758661
            ],
            [
              8285301.605382185,
              3711928.6813974036
            ],
            [
              8285300.783679594,
              3711943.038786097
            ],
            [
              8285305.315379605,
              3711943.0125670424
            ],
            [
              8285306.088322796,
              3711928.454758661
            ]
          ]
        ]
      }
    },
    {
      "type": "Feature",
      "properties": {
        "Id": 0
      },
      "geometry": {
        "type": "Polygon",
        "coordinates": [
          [
            [
              8285289.704435868,
              3711938.126579784
            ],
            [
              8285285.920199099,
              3711938.0566416564
            ],
            [
              8285285.432690199,
              3711945.6102419337
            ],
            [
              8285289.765206923,
              3711945.5829813615
            ],
            [
              8285289.704435868,
              3711938.126579784
            ]
          ]
        ]
      }
    },
    {
      "type": "Feature",
      "properties": {
        "Id": 0
      },
      "geometry": {
        "type": "Polygon",
        "coordinates": [
          [
            [
              8285285.4308374375,
              3711936.402722123
            ],
            [
              8285288.915776533,
              3711936.571168322
            ],
            [
              8285289.153000215,
              3711929.2664612965
            ],
            [
              8285285.917564215,
              3711928.999245661
            ],
            [
              8285285.4308374375,
              3711936.402722123
            ]
          ]
        ]
      }
    },
    {
      "type": "Feature",
      "properties": {
        "Id": 0
      },
      "geometry": {
        "type": "Polygon",
        "coordinates": [
          [
            [
              8285285.876106107,
              3711927.397723234
            ],
            [
              8285289.809727502,
              3711927.4684467167
            ],
            [
              8285290.195556613,
              3711920.3146485738
            ],
            [
              8285286.062493181,
              3711920.2929173294
            ],
            [
              8285285.876106107,
              3711927.397723234
            ]
          ]
        ]
      }
    },
    {
      "type": "Feature",
      "properties": {
        "Id": 0
      },
      "geometry": {
        "type": "Polygon",
        "coordinates": [
          [
            [
              8285291.575219264,
              3711913.5664054155
            ],
            [
              8285286.147203694,
              3711913.5879065185
            ],
            [
              8285285.9722813545,
              3711918.4909767797
            ],
            [
              8285291.350242625,
              3711918.519253328
            ],
            [
              8285291.575219264,
              3711913.5664054155
            ]
          ]
        ]
      }
    },
    {
      "type": "Feature",
      "properties": {
        "Id": 0
      },
      "geometry": {
        "type": "Polygon",
        "coordinates": [
          [
            [
              8285282.903433693,
              3711914.921949238
            ],
            [
              8285275.534418995,
              3711914.733076174
            ],
            [
              8285275.366528598,
              3711918.285084083
            ],
            [
              8285282.93446861,
              3711918.525044063
            ],
            [
              8285282.903433693,
              3711914.921949238
            ]
          ]
        ]
      }
    },
    {
      "type": "Feature",
      "properties": {
        "Id": 0
      },
      "geometry": {
        "type": "Polygon",
        "coordinates": [
          [
            [
              8285274.041062567,
              3711914.6251411955
            ],
            [
              8285266.571153236,
              3711914.6859356123
            ],
            [
              8285266.452274261,
              3711918.388323315
            ],
            [
              8285273.921664642,
              3711918.4276076932
            ],
            [
              8285274.041062567,
              3711914.6251411955
            ]
          ]
        ]
      }
    },
    {
      "type": "Feature",
      "properties": {
        "Id": 0
      },
      "geometry": {
        "type": "Polygon",
        "coordinates": [
          [
            [
              8285265.077275626,
              3711914.6780782077
            ],
            [
              8285257.8065499775,
              3711914.739914882
            ],
            [
              8285257.687407673,
              3711918.4923418285
            ],
            [
              8285264.859325615,
              3711918.279863344
            ],
            [
              8285265.077275626,
              3711914.6780782077
            ]
          ]
        ]
      }
    },
    {
      "type": "Feature",
      "properties": {
        "Id": 0
      },
      "geometry": {
        "type": "Polygon",
        "coordinates": [
          [
            [
              8285256.285822484,
              3711919.8861091617
            ],
            [
              8285251.454834154,
              3711920.0108168144
            ],
            [
              8285251.528097946,
              3711934.6231038566
            ],
            [
              8285256.160429409,
              3711934.3972694483
            ],
            [
              8285256.285822484,
              3711919.8861091617
            ]
          ]
        ]
      }
    },
    {
      "type": "Feature",
      "properties": {
        "Id": 0
      },
      "geometry": {
        "type": "Polygon",
        "coordinates": [
          [
            [
              8285255.655170295,
              3711935.795753631
            ],
            [
              8285252.5172398705,
              3711935.9293682044
            ],
            [
              8285252.6791445,
              3711943.0860555544
            ],
            [
              8285255.916408149,
              3711943.003004254
            ],
            [
              8285255.655170295,
              3711935.795753631
            ]
          ]
        ]
      }
    },
    {
      "type": "Feature",
      "properties": {
        "Id": 0
      },
      "geometry": {
        "type": "Polygon",
        "coordinates": [
          [
            [
              8285256.205017797,
              3711944.9561147452
            ],
            [
              8285252.4700539,
              3711944.986506975
            ],
            [
              8285252.445029923,
              3711959.348102046
            ],
            [
              8285256.32912583,
              3711959.368535239
            ],
            [
              8285256.205017797,
              3711944.9561147452
            ]
          ]
        ]
      }
    },
    {
      "type": "Feature",
      "properties": {
        "Id": 0
      },
      "geometry": {
        "type": "Polygon",
        "coordinates": [
          [
            [
              8285266.463002733,
              3711945.010073216
            ],
            [
              8285262.629228679,
              3711944.889826371
            ],
            [
              8285262.554159879,
              3711959.301199107
            ],
            [
              8285266.5873835,
              3711959.3724543187
            ],
            [
              8285266.463002733,
              3711945.010073216
            ]
          ]
        ]
      }
    },
    {
      "type": "Feature",
      "properties": {
        "Id": 0
      },
      "geometry": {
        "type": "Polygon",
        "coordinates": [
          [
            [
              8285266.628578491,
              3711961.0240204525
            ],
            [
              8285262.694425232,
              3711961.0533681465
            ],
            [
              8285262.458227501,
              3711968.157935014
            ],
            [
              8285266.2927907705,
              3711968.1280635786
            ],
            [
              8285266.628578491,
              3711961.0240204525
            ]
          ]
        ]
      }
    },
    {
      "type": "Feature",
      "properties": {
        "Id": 0
      },
      "geometry": {
        "type": "Polygon",
        "coordinates": [
          [
            [
              8285256.220931113,
              3711961.019315518
            ],
            [
              8285252.486483705,
              3711960.9496286735
            ],
            [
              8285252.099848839,
              3711968.2535674856
            ],
            [
              8285256.233188948,
              3711968.2252710806
            ],
            [
              8285256.220931113,
              3711961.019315518
            ]
          ]
        ]
      }
    },
    {
      "type": "Feature",
      "properties": {
        "Id": 0
      },
      "geometry": {
        "type": "Polygon",
        "coordinates": [
          [
            [
              8285256.376842351,
              3711969.3269271795
            ],
            [
              8285252.443207834,
              3711969.2561924085
            ],
            [
              8285252.156164956,
              3711976.5606600796
            ],
            [
              8285256.239972381,
              3711976.4820621316
            ],
            [
              8285256.376842351,
              3711969.3269271795
            ]
          ]
        ]
      }
    },
    {
      "type": "Feature",
      "properties": {
        "Id": 0
      },
      "geometry": {
        "type": "Polygon",
        "coordinates": [
          [
            [
              8285289.682061194,
              3711951.9877726557
            ],
            [
              8285286.047468915,
              3711951.8685803944
            ],
            [
              8285285.8592571765,
              3711959.3236810933
            ],
            [
              8285289.943058784,
              3711959.245071802
            ],
            [
              8285289.682061194,
              3711951.9877726557
            ]
          ]
        ]
      }
    },
    {
      "type": "Feature",
      "properties": {
        "Id": 0
      },
      "geometry": {
        "type": "Polygon",
        "coordinates": [
          [
            [
              8285290.184744091,
              3711960.647487522
            ],
            [
              8285286.100681455,
              3711960.77613642
            ],
            [
              8285286.012582935,
              3711968.1316870535
            ],
            [
              8285290.146444168,
              3711968.003299961
            ],
            [
              8285290.184744091,
              3711960.647487522
            ]
          ]
        ]
      }
    },
    {
      "type": "Feature",
      "properties": {
        "Id": 0
      },
      "geometry": {
        "type": "Polygon",
        "coordinates": [
          [
            [
              8285290.285931934,
              3711969.905588657
            ],
            [
              8285286.301719056,
              3711969.984721751
            ],
            [
              8285286.313733993,
              3711977.240722351
            ],
            [
              8285290.397802129,
              3711977.112073286
            ],
            [
              8285290.285931934,
              3711969.905588657
            ]
          ]
        ]
      }
    },
    {
      "type": "Feature",
      "properties": {
        "Id": 0
      },
      "geometry": {
        "type": "Polygon",
        "coordinates": [
          [
            [
              8285430.729066909,
              3711900.0856684656
            ],
            [
              8285429.233512523,
              3711909.9858761737
            ],
            [
              8285414.953786706,
              3711907.6591218784
            ],
            [
              8285414.531496673,
              3711912.2606498236
            ],
            [
              8285433.240986159,
              3711915.0109702107
            ],
            [
              8285434.560749727,
              3711900.6061758297
            ],
            [
              8285430.729066909,
              3711900.0856684656
            ]
          ]
        ]
      }
    },
    {
      "type": "Feature",
      "properties": {
        "Id": 0
      },
      "geometry": {
        "type": "Polygon",
        "coordinates": [
          [
            [
              8285436.68977125,
              3711898.7876046575
            ],
            [
              8285434.042660186,
              3711914.0644021383
            ],
            [
              8285437.128968162,
              3711914.2807548884
            ],
            [
              8285453.49691794,
              3711926.826747374
            ],
            [
              8285466.63907147,
              3711937.254103698
            ],
            [
              8285473.237003139,
              3711942.092614471
            ],
            [
              8285483.032355026,
              3711935.3384133955
            ],
            [
              8285489.547653635,
              3711927.3159975205
            ],
            [
              8285490.339974195,
              3711928.17084334
            ],
            [
              8285493.146210096,
              3711924.782779134
            ],
            [
              8285492.723041891,
              3711924.186077133
            ],
            [
              8285499.936208891,
              3711916.025204663
            ],
            [
              8285493.588985235,
              3711912.030968281
            ],
            [
              8285479.535298247,
              3711906.327727788
            ],
            [
              8285464.386250041,
              3711901.791558436
            ],
            [
              8285450.901853705,
              3711899.1406264617
            ],
            [
              8285441.830511931,
              3711898.810819719
            ],
            [
              8285436.68977125,
              3711898.7876046575
            ]
          ]
        ]
      }
    },
    {
      "type": "Feature",
      "properties": {
        "Id": 0
      },
      "geometry": {
        "type": "Polygon",
        "coordinates": [
          [
            [
              8285413.23562632,
              3711960.3931004554
            ],
            [
              8285409.5106650945,
              3711968.0798534835
            ],
            [
              8285414.579730952,
              3711970.058050965
            ],
            [
              8285417.657860036,
              3711962.2678192332
            ],
            [
              8285413.23562632,
              3711960.3931004554
            ]
          ]
        ]
      }
    },
    {
      "type": "Feature",
      "properties": {
        "Id": 0
      },
      "geometry": {
        "type": "Polygon",
        "coordinates": [
          [
            [
              8285416.444805651,
              3711953.111737839
            ],
            [
              8285415.07967951,
              3711956.7529947427
            ],
            [
              8285417.685849753,
              3711957.648030354
            ],
            [
              8285418.867832924,
              3711953.9238249394
            ],
            [
              8285416.444805651,
              3711953.111737839
            ]
          ]
        ]
      }
    },
    {
      "type": "Feature",
      "properties": {
        "Id": 0
      },
      "geometry": {
        "type": "Polygon",
        "coordinates": [
          [
            [
              8285596.536622665,
              3711884.1907658223
            ],
            [
              8285586.4293620875,
              3711874.279882998
            ],
            [
              8285583.1752607105,
              3711877.6155708306
            ],
            [
              8285593.831571992,
              3711887.2791289818
            ],
            [
              8285596.536622665,
              3711884.1907658223
            ]
          ]
        ]
      }
    },
    {
      "type": "Feature",
      "properties": {
        "Id": 0
      },
      "geometry": {
        "type": "Polygon",
        "coordinates": [
          [
            [
              8285615.302649317,
              3711885.6400387124
            ],
            [
              8285598.272994519,
              3711885.4508660496
            ],
            [
              8285598.298936876,
              3711890.0547379903
            ],
            [
              8285614.929712882,
              3711890.341905501
            ],
            [
              8285615.302649317,
              3711885.6400387124
            ]
          ]
        ]
      }
    },
    {
      "type": "Feature",
      "properties": {
        "Id": 0
      },
      "geometry": {
        "type": "Polygon",
        "coordinates": [
          [
            [
              8285352.964928394,
              3711766.2057551094
            ],
            [
              8285338.2736498555,
              3711766.0645307796
            ],
            [
              8285338.158215955,
              3711769.8749795863
            ],
            [
              8285352.753059145,
              3711770.1758260285
            ],
            [
              8285352.964928394,
              3711766.2057551094
            ]
          ]
        ]
      }
    },
    {
      "type": "Feature",
      "properties": {
        "Id": 0
      },
      "geometry": {
        "type": "Polygon",
        "coordinates": [
          [
            [
              8285260.905951504,
              3711818.7564952294
            ],
            [
              8285249.75559052,
              3711817.961245338
            ],
            [
              8285249.544687744,
              3711821.739181006
            ],
            [
              8285260.599778342,
              3711822.4698786126
            ],
            [
              8285260.905951504,
              3711818.7564952294
            ]
          ]
        ]
      }
    },
    {
      "type": "Feature",
      "properties": {
        "Id": 0
      },
      "geometry": {
        "type": "Polygon",
        "coordinates": [
          [
            [
              8285134.11160405,
              3711780.8809703365
            ],
            [
              8285111.163256544,
              3711779.358875783
            ],
            [
              8285111.51877268,
              3711787.567338231
            ],
            [
              8285134.027856789,
              3711787.3857516316
            ],
            [
              8285134.11160405,
              3711780.8809703365
            ]
          ]
        ]
      }
    },
    {
      "type": "Feature",
      "properties": {
        "Id": 0
      },
      "geometry": {
        "type": "Polygon",
        "coordinates": [
          [
            [
              8285138.586312772,
              3711791.7632731306
            ],
            [
              8285138.643251643,
              3711809.477818685
            ],
            [
              8285136.352398315,
              3711809.5157856694
            ],
            [
              8285136.379472789,
              3711813.8694332642
            ],
            [
              8285143.798480042,
              3711814.0086120763
            ],
            [
              8285143.963433682,
              3711791.941730547
            ],
            [
              8285138.586312772,
              3711791.7632731306
            ]
          ]
        ]
      }
    },
    {
      "type": "Feature",
      "properties": {
        "Id": 0
      },
      "geometry": {
        "type": "Polygon",
        "coordinates": [
          [
            [
              8285513.828878709,
              3711585.619477672
            ],
            [
              8285513.828878159,
              3711585.619477672
            ],
            [
              8285514.038132595,
              3711593.276601987
            ],
            [
              8285526.1387471855,
              3711593.2399107325
            ],
            [
              8285526.177679532,
              3711585.7342047035
            ],
            [
              8285513.828878709,
              3711585.619477672
            ]
          ]
        ]
      }
    },
    {
      "type": "Feature",
      "properties": {
        "Id": 0
      },
      "geometry": {
        "type": "Polygon",
        "coordinates": [
          [
            [
              8285528.852572973,
              3711588.4503422054
            ],
            [
              8285528.710642036,
              3711606.213597021
            ],
            [
              8285546.834610333,
              3711606.5587083413
            ],
            [
              8285547.226266424,
              3711588.646641993
            ],
            [
              8285528.852572973,
              3711588.4503422054
            ]
          ]
        ]
      }
    },
    {
      "type": "Feature",
      "properties": {
        "Id": 0
      },
      "geometry": {
        "type": "Polygon",
        "coordinates": [
          [
            [
              8285599.322321956,
              3711591.385413695
            ],
            [
              8285592.418313755,
              3711589.381661631
            ],
            [
              8285591.3809333015,
              3711592.9635355673
            ],
            [
              8285598.440774583,
              3711594.974035681
            ],
            [
              8285599.322321956,
              3711591.385413695
            ]
          ]
        ]
      }
    },
    {
      "type": "Feature",
      "properties": {
        "Id": 0
      },
      "geometry": {
        "type": "Polygon",
        "coordinates": [
          [
            [
              8285616.050593086,
              3712094.786459137
            ],
            [
              8285608.992911591,
              3712098.766946548
            ],
            [
              8285608.890216149,
              3712098.8273892226
            ],
            [
              8285608.778709292,
              3712098.869191078
            ],
            [
              8285608.661711213,
              3712098.891107433
            ],
            [
              8285608.542705609,
              3712098.8924857154
            ],
            [
              8285608.425235947,
              3712098.873284884
            ],
            [
              8285608.312799964,
              3712098.8340766584
            ],
            [
              8285608.208745521,
              3712098.7760284897
            ],
            [
              8285608.116170902,
              3712098.7008688007
            ],
            [
              8285601.466300889,
              3712094.833141503
            ],
            [
              8285600.418102945,
              3712096.3649304924
            ],
            [
              8285603.922249932,
              3712098.0904720686
            ],
            [
              8285607.190353822,
              3712100.2332991166
            ],
            [
              8285607.340989667,
              3712100.3303800784
            ],
            [
              8285607.474688049,
              3712100.4499117034
            ],
            [
              8285607.588167433,
              3712100.58896017
            ],
            [
              8285607.678642537,
              3712100.744112622
            ],
            [
              8285607.74389271,
              3712100.911560943
            ],
            [
              8285607.782316425,
              3712101.087195225
            ],
            [
              8285607.792970596,
              3712101.2667046343
            ],
            [
              8285607.775593723,
              3712101.445683233
            ],
            [
              8285607.7977057155,
              3712108.988693202
            ],
            [
              8285608.756133981,
              3712109.035922181
            ],
            [
              8285609.714999654,
              3712108.99872379
            ],
            [
              8285609.858290267,
              3712101.0261423546
            ],
            [
              8285609.897314726,
              3712100.814839111
            ],
            [
              8285609.96771682,
              3712100.61190596
            ],
            [
              8285610.067874298,
              3712100.4220189946
            ],
            [
              8285610.195479279,
              3712100.249553688
            ],
            [
              8285610.34759142,
              3712100.0984840784
            ],
            [
              8285610.520705673,
              3712099.9722911865
            ],
            [
              8285613.661900089,
              3712098.034499724
            ],
            [
              8285616.9464809485,
              3712096.3538352274
            ],
            [
              8285616.050593086,
              3712094.786459137
            ]
          ]
        ]
      }
    },
    {
      "type": "Feature",
      "properties": {
        "Id": 0
      },
      "geometry": {
        "type": "Polygon",
        "coordinates": [
          [
            [
              8286013.71710947,
              3711900.8281801078
            ],
            [
              8285985.988639548,
              3711891.3013934987
            ],
            [
              8285975.274925517,
              3711916.891528663
            ],
            [
              8285982.574617453,
              3711919.666096701
            ],
            [
              8285980.217477226,
              3711924.1105934633
            ],
            [
              8285982.857253172,
              3711925.2189639313
            ],
            [
              8285981.597051076,
              3711928.1835815865
            ],
            [
              8285999.99849866,
              3711935.7853876576
            ],
            [
              8286013.71710947,
              3711900.8281801078
            ]
          ]
        ]
      }
    },
    {
      "type": "Feature",
      "properties": {
        "Id": 0
      },
      "geometry": {
        "type": "Polygon",
        "coordinates": [
          [
            [
              8285970.505128033,
              3711924.4729144075
            ],
            [
              8285967.43380332,
              3711931.0122813056
            ],
            [
              8285970.812459225,
              3711932.481039257
            ],
            [
              8285973.685629413,
              3711925.740476929
            ],
            [
              8285970.505128033,
              3711924.4729144075
            ]
          ]
        ]
      }
    },
    {
      "type": "Feature",
      "properties": {
        "Id": 0
      },
      "geometry": {
        "type": "Polygon",
        "coordinates": [
          [
            [
              8286054.0001252275,
              3711966.1405999945
            ],
            [
              8286042.047752154,
              3711966.328709734
            ],
            [
              8286042.110269262,
              3711973.5349327372
            ],
            [
              8286054.21100837,
              3711973.547757495
            ],
            [
              8286054.0001252275,
              3711966.1405999945
            ]
          ]
        ]
      }
    },
    {
      "type": "Feature",
      "properties": {
        "Id": 0
      },
      "geometry": {
        "type": "Polygon",
        "coordinates": [
          [
            [
              8286053.829227672,
              3711980.0010616705
            ],
            [
              8286035.95005766,
              3711980.3585398854
            ],
            [
              8286035.76008458,
              3711997.9219568013
            ],
            [
              8286053.636191215,
              3711998.164955541
            ],
            [
              8286053.829227672,
              3711980.0010616705
            ]
          ]
        ]
      }
    },
    {
      "type": "Feature",
      "properties": {
        "Id": 0
      },
      "geometry": {
        "type": "Polygon",
        "coordinates": [
          [
            [
              8286029.100374847,
              3711994.7425286695
            ],
            [
              8286026.977971567,
              3711994.956963787
            ],
            [
              8286027.232683992,
              3711996.9874727037
            ],
            [
              8286029.253421208,
              3711996.7110187076
            ],
            [
              8286029.100374847,
              3711994.7425286695
            ]
          ]
        ]
      }
    },
    {
      "type": "Feature",
      "properties": {
        "Id": 0
      },
      "geometry": {
        "type": "Polygon",
        "coordinates": [
          [
            [
              8286090.713297387,
              3711963.729129684
            ],
            [
              8286090.713297387,
              3711963.7291295794
            ],
            [
              8286085.137668541,
              3711963.3999358425
            ],
            [
              8286084.817417634,
              3711977.259619716
            ],
            [
              8286090.095818976,
              3711977.287024949
            ],
            [
              8286090.713297387,
              3711963.729129684
            ]
          ]
        ]
      }
    },
    {
      "type": "Feature",
      "properties": {
        "Id": 0
      },
      "geometry": {
        "type": "Polygon",
        "coordinates": [
          [
            [
              8285435.198482795,
              3712371.526994555
            ],
            [
              8285434.480570341,
              3712371.5101098125
            ],
            [
              8285434.436977784,
              3712372.3625744325
            ],
            [
              8285435.220365715,
              3712372.3404476056
            ],
            [
              8285435.198482795,
              3712371.526994555
            ]
          ]
        ]
      }
    },
    {
      "type": "Feature",
      "properties": {
        "Id": 0
      },
      "geometry": {
        "type": "Polygon",
        "coordinates": [
          [
            [
              8285437.587808998,
              3712371.460819213
            ],
            [
              8285436.791503236,
              3712371.4566417104
            ],
            [
              8285436.747978993,
              3712372.2959883357
            ],
            [
              8285437.583447391,
              3712372.3003712934
            ],
            [
              8285437.587808998,
              3712371.460819213
            ]
          ]
        ]
      }
    },
    {
      "type": "Feature",
      "properties": {
        "Id": 0
      },
      "geometry": {
        "type": "Polygon",
        "coordinates": [
          [
            [
              8285435.01701315,
              3712366.2524635848
            ],
            [
              8285434.233830067,
              3712366.235236412
            ],
            [
              8285434.203632475,
              3712367.022179171
            ],
            [
              8285435.013128442,
              3712367.000189333
            ],
            [
              8285435.01701315,
              3712366.2524635848
            ]
          ]
        ]
      }
    },
    {
      "type": "Feature",
      "properties": {
        "Id": 0
      },
      "geometry": {
        "type": "Polygon",
        "coordinates": [
          [
            [
              8285436.662794862,
              3712366.077440764
            ],
            [
              8285436.632188518,
              3712366.943091497
            ],
            [
              8285437.402249312,
              3712366.973368032
            ],
            [
              8285437.406610924,
              3712366.1338163186
            ],
            [
              8285436.662794862,
              3712366.077440764
            ]
          ]
        ]
      }
    },
    {
      "type": "Feature",
      "properties": {
        "Id": 0
      },
      "geometry": {
        "type": "Polygon",
        "coordinates": [
          [
            [
              8285434.911724827,
              3712363.9037262984
            ],
            [
              8285434.128541897,
              3712363.8864991195
            ],
            [
              8285434.1373024,
              3712364.7130011707
            ],
            [
              8285434.933607722,
              3712364.7171788397
            ],
            [
              8285434.911724827,
              3712363.9037262984
            ]
          ]
        ]
      }
    },
    {
      "type": "Feature",
      "properties": {
        "Id": 0
      },
      "geometry": {
        "type": "Polygon",
        "coordinates": [
          [
            [
              8285437.340552848,
              3712363.772166519
            ],
            [
              8285436.583205684,
              3712363.807548442
            ],
            [
              8285436.565857983,
              3712364.633913522
            ],
            [
              8285437.34897282,
              3712364.664258535
            ],
            [
              8285437.340552848,
              3712363.772166519
            ]
          ]
        ]
      }
    },
    {
      "type": "Feature",
      "properties": {
        "Id": 0
      },
      "geometry": {
        "type": "Polygon",
        "coordinates": [
          [
            [
              8285434.717405655,
              3712358.5897761323
            ],
            [
              8285433.829789632,
              3712358.5720010586
            ],
            [
              8285433.773142908,
              3712359.4243962974
            ],
            [
              8285434.72623435,
              3712359.403159844
            ],
            [
              8285434.717405655,
              3712358.5897761323
            ]
          ]
        ]
      }
    },
    {
      "type": "Feature",
      "properties": {
        "Id": 0
      },
      "geometry": {
        "type": "Polygon",
        "coordinates": [
          [
            [
              8285437.185395156,
              3712358.45842189
            ],
            [
              8285436.3890220905,
              3712358.4673623648
            ],
            [
              8285436.332171091,
              3712359.3591115726
            ],
            [
              8285437.180624634,
              3712359.37668101
            ],
            [
              8285437.185395156,
              3712358.45842189
            ]
          ]
        ]
      }
    },
    {
      "type": "Feature",
      "properties": {
        "Id": 0
      },
      "geometry": {
        "type": "Polygon",
        "coordinates": [
          [
            [
              8285284.209458446,
              3712294.8877679287
            ],
            [
              8285279.270049825,
              3712294.7657111716
            ],
            [
              8285278.862611435,
              3712311.8019651375
            ],
            [
              8285283.930175762,
              3712311.7965878816
            ],
            [
              8285284.209458446,
              3712294.8877679287
            ]
          ]
        ]
      }
    },
    {
      "type": "Feature",
      "properties": {
        "Id": 0
      },
      "geometry": {
        "type": "Polygon",
        "coordinates": [
          [
            [
              8285271.310887106,
              3712306.5174933583
            ],
            [
              8285269.495612788,
              3712306.6522465344
            ],
            [
              8285269.713299739,
              3712309.97231882
            ],
            [
              8285271.5149738025,
              3712309.942440377
            ],
            [
              8285271.310887106,
              3712306.5174933583
            ]
          ]
        ]
      }
    },
    {
      "type": "Feature",
      "properties": {
        "Id": 0
      },
      "geometry": {
        "type": "Polygon",
        "coordinates": [
          [
            [
              8285393.685630631,
              3712301.323920555
            ],
            [
              8285375.361450307,
              3712300.977500354
            ],
            [
              8285375.067539142,
              3712319.1913594883
            ],
            [
              8285393.243914897,
              3712319.236750843
            ],
            [
              8285393.685630631,
              3712301.323920555
            ]
          ]
        ]
      }
    },
    {
      "type": "Feature",
      "properties": {
        "Id": 0
      },
      "geometry": {
        "type": "Polygon",
        "coordinates": [
          [
            [
              8285382.109962935,
              3712323.149177357
            ],
            [
              8285374.725895199,
              3712323.171896391
            ],
            [
              8285374.64218443,
              3712335.3468909455
            ],
            [
              8285381.944031605,
              3712335.44672454
            ],
            [
              8285382.109962935,
              3712323.149177357
            ]
          ]
        ]
      }
    },
    {
      "type": "Feature",
      "properties": {
        "Id": 0
      },
      "geometry": {
        "type": "Polygon",
        "coordinates": [
          [
            [
              8285348.301534985,
              3712325.7144180313
            ],
            [
              8285344.602061781,
              3712326.175389505
            ],
            [
              8285344.752583086,
              3712327.8736178963
            ],
            [
              8285348.419686492,
              3712327.508557646
            ],
            [
              8285348.301534985,
              3712325.7144180313
            ]
          ]
        ]
      }
    }
  ]
}