{
  "type": "FeatureCollection",
  "name": "F:\\MOEED\\CB_1\\Topography CB_1\\Kela\\Green Belt.geojson",
  "crs": {
    "type": "name",
    "properties": {
      "name": "urn:ogc:def:crs:EPSG::3857"
    }
  },
  "features": [
    {
      "type": "Feature",
      "properties": {
        "Id": 0
      },
      "geometry": {
        "type": "Polygon",
        "coordinates": [
          [
            [
              8285596.332337722,
              3712356.111446024
            ],
            [
              8285596.355336037,
              3712356.111446024
            ],
            [
              8285618.285928904,
              3712355.951575449
            ],
            [
              8285618.529998045,
              3712337.019422147
            ],
            [
              8285618.413665349,
              3712318.0860022428
            ],
            [
              8285617.927873269,
              3712316.2825221918
            ],
            [
              8285617.141189253,
              3712314.5895036985
            ],
            [
              8285616.076822946,
              3712313.057542933
            ],
            [
              8285614.766578961,
              3712311.7318561324
            ],
            [
              8285613.249215145,
              3712310.6520351632
            ],
            [
              8285611.569866158,
              3712309.8500396865
            ],
            [
              8285609.778402973,
              3712309.349716866
            ],
            [
              8285607.928028897,
              3712309.165968531
            ],
            [
              8285605.965487514,
              3712309.475295867
            ],
            [
              8285604.076801344,
              3712310.094580512
            ],
            [
              8285602.310286289,
              3712311.008036611
            ],
            [
              8285600.7111282,
              3712312.1924322727
            ],
            [
              8285599.319738091,
              3712313.617434732
            ],
            [
              8285598.1718633715,
              3712315.246790231
            ],
            [
              8285597.296706521,
              3712317.0390217584
            ],
            [
              8285596.716568113,
              3712318.9483706
            ],
            [
              8285596.446253306,
              3712320.926090493
            ],
            [
              8285596.332337722,
              3712356.111446024
            ]
          ]
        ]
      }
    },
    {
      "type": "Feature",
      "properties": {
        "Id": 0
      },
      "geometry": {
        "type": "Polygon",
        "coordinates": [
          [
            [
              8285597.04359835,
              3712191.929162589
            ],
            [
              8285596.99938477,
              3712203.598304738
            ],
            [
              8285596.805464409,
              3712254.7784458315
            ],
            [
              8285597.024801081,
              3712263.1362121054
            ],
            [
              8285597.61396531,
              3712264.987870413
            ],
            [
              8285598.513984281,
              3712266.7087185346
            ],
            [
              8285599.697549856,
              3712268.2464877446
            ],
            [
              8285601.128640253,
              3712269.554524393
            ],
            [
              8285602.764038948,
              3712270.593095144
            ],
            [
              8285604.553914104,
              3712271.3308052015
            ],
            [
              8285606.444045266,
              3712271.745199635
            ],
            [
              8285608.376992652,
              3712271.8235950335
            ],
            [
              8285610.294205892,
              3712271.5637981514
            ],
            [
              8285612.137435357,
              3712270.9735236242
            ],
            [
              8285613.850842742,
              3712270.0707587986
            ],
            [
              8285615.382296259,
              3712268.8829449806
            ],
            [
              8285616.685369957,
              3712267.4461623593
            ],
            [
              8285617.720523999,
              3712265.8038389
            ],
            [
              8285618.456399833,
              3712264.005931579
            ],
            [
              8285618.8705340875,
              3712262.1070431895
            ],
            [
              8285619.3876769105,
              3712226.5938072326
            ],
            [
              8285619.194704311,
              3712191.077430589
            ],
            [
              8285618.882468986,
              3712189.390920857
            ],
            [
              8285618.302163457,
              3712187.7775413073
            ],
            [
              8285617.469408833,
              3712186.2801824235
            ],
            [
              8285616.405946928,
              3712184.938228774
            ],
            [
              8285615.14011149,
              3712183.7872076654
            ],
            [
              8285613.705308095,
              3712182.8577198456
            ],
            [
              8285612.139550845,
              3712182.174257792
            ],
            [
              8285610.484290058,
              3712181.754963725
            ],
            [
              8285608.783125659,
              3712181.6107973694
            ],
            [
              8285606.686224168,
              3712181.853495633
            ],
            [
              8285604.661871102,
              3712182.454374738
            ],
            [
              8285602.770244953,
              3712183.3957062573
            ],
            [
              8285601.067587989,
              3712184.649363305
            ],
            [
              8285599.60443866,
              3712186.1782264705
            ],
            [
              8285598.424337018,
              3712187.936884578
            ],
            [
              8285597.562174458,
              3712189.8730412116
            ],
            [
              8285597.04359835,
              3712191.929162589
            ]
          ]
        ]
      }
    },
    {
      "type": "Feature",
      "properties": {
        "Id": 0
      },
      "geometry": {
        "type": "Polygon",
        "coordinates": [
          [
            [
              8285609.904293905,
              3712147.849567226
            ],
            [
              8285613.145448709,
              3712147.7579665813
            ],
            [
              8285619.5391599545,
              3712146.6701308796
            ],
            [
              8285625.720101505,
              3712144.698824474
            ],
            [
              8285631.567783285,
              3712141.8823349597
            ],
            [
              8285636.513529528,
              3712138.8483805433
            ],
            [
              8285641.040136135,
              3712135.213501436
            ],
            [
              8285645.075718052,
              3712131.035108562
            ],
            [
              8285648.556205582,
              3712126.3798522917
            ],
            [
              8285651.426176833,
              3712121.321504001
            ],
            [
              8285653.640150421,
              3712115.9406089135
            ],
            [
              8285655.1628305195,
              3712110.322482527
            ],
            [
              8285655.9701660285,
              3712104.556626445
            ],
            [
              8285656.127337154,
              3712098.543377241
            ],
            [
              8285655.538687307,
              3712092.5571296276
            ],
            [
              8285654.21335821,
              3712086.6910957587
            ],
            [
              8285652.17200307,
              3712081.036424932
            ],
            [
              8285649.446441768,
              3712075.6807866665
            ],
            [
              8285646.078842986,
              3712070.7076588897
            ],
            [
              8285641.940053931,
              3712066.0156534463
            ],
            [
              8285637.221291799,
              3712061.9135651896
            ],
            [
              8285632.005037988,
              3712058.473171526
            ],
            [
              8285626.382517457,
              3712055.7547386196
            ],
            [
              8285620.452179919,
              3712053.805716281
            ],
            [
              8285614.317707353,
              3712052.660255948
            ],
            [
              8285608.803545769,
              3712052.3365859264
            ],
            [
              8285603.28633193,
              3712052.602072814
            ],
            [
              8285597.828160447,
              3712053.453975385
            ],
            [
              8285592.490692606,
              3712054.8825925016
            ],
            [
              8285586.364721431,
              3712057.7355604656
            ],
            [
              8285580.684001669,
              3712061.402447201
            ],
            [
              8285575.55486026,
              3712065.8147038957
            ],
            [
              8285571.073605028,
              3712070.889695819
            ],
            [
              8285567.324052948,
              3712076.5321044163
            ],
            [
              8285564.37657908,
              3712082.6362807825
            ],
            [
              8285562.426825685,
              3712088.8157332507
            ],
            [
              8285561.324008866,
              3712095.2029337003
            ],
            [
              8285561.088098445,
              3712101.6812366573
            ],
            [
              8285561.723699658,
              3712108.132264772
            ],
            [
              8285563.218984626,
              3712114.438261791
            ],
            [
              8285565.546737403,
              3712120.4842208303
            ],
            [
              8285568.66446266,
              3712126.159535973
            ],
            [
              8285572.564566345,
              3712131.367227755
            ],
            [
              8285577.130383935,
              3712135.996537347
            ],
            [
              8285582.277743205,
              3712139.9622309553
            ],
            [
              8285587.9118467355,
              3712143.1911660223
            ],
            [
              8285593.929140416,
              3712145.624070104
            ],
            [
              8285600.218719318,
              3712147.2160200495
            ],
            [
              8285606.663242146,
              3712147.9411640954
            ],
            [
              8285609.904293905,
              3712147.849567226
            ]
          ]
        ]
      }
    },
    {
      "type": "Feature",
      "properties": {
        "Id": 0
      },
      "geometry": {
        "type": "Polygon",
        "coordinates": [
          [
            [
              8285281.9376299335,
              3712096.572004771
            ],
            [
              8285281.806332364,
              3712096.612471828
            ],
            [
              8285281.683723269,
              3712096.674683668
            ],
            [
              8285281.573449799,
              3712096.756890511
            ],
            [
              8285281.478692765,
              3712096.856750489
            ],
            [
              8285281.402166641,
              3712096.9713296443
            ],
            [
              8285281.346118329,
              3712097.0973377363
            ],
            [
              8285281.312210418,
              3712097.2310097762
            ],
            [
              8285281.301284036,
              3712097.368576421
            ],
            [
              8285281.31382947,
              3712097.5060306396
            ],
            [
              8285281.349398197,
              3712097.639360457
            ],
            [
              8285281.407072265,
              3712097.7645514323
            ],
            [
              8285281.484991846,
              3712097.8781738183
            ],
            [
              8285281.580944421,
              3712097.9769139476
            ],
            [
              8285281.692128874,
              3712098.05780884
            ],
            [
              8285281.815506315,
              3712098.118483922
            ],
            [
              8285281.947212074,
              3712098.157385775
            ],
            [
              8285365.30648931,
              3712098.4491022993
            ],
            [
              8285399.338710658,
              3712098.7684728703
            ],
            [
              8285402.893002182,
              3712099.0313612586
            ],
            [
              8285406.375100507,
              3712099.7947178134
            ],
            [
              8285409.715376191,
              3712101.043200175
            ],
            [
              8285412.847535239,
              3712102.7519312995
            ],
            [
              8285414.908942681,
              3712104.3691900163
            ],
            [
              8285416.75101258,
              3712106.2347194063
            ],
            [
              8285416.767471118,
              3712106.251787678
            ],
            [
              8285416.786408775,
              3712106.266038644
            ],
            [
              8285416.807358596,
              3712106.2769981334
            ],
            [
              8285416.829735647,
              3712106.2843092782
            ],
            [
              8285416.853187878,
              3712106.287970243
            ],
            [
              8285416.876777069,
              3712106.2878581644
            ],
            [
              8285416.900034424,
              3712106.2838526596
            ],
            [
              8285416.922372565,
              3712106.276068575
            ],
            [
              8285416.943203501,
              3712106.2647386813
            ],
            [
              8285416.961938627,
              3712106.2502136827
            ],
            [
              8285416.977988727,
              3712106.232962212
            ],
            [
              8285416.99111787,
              3712106.2132188776
            ],
            [
              8285417.000970932,
              3712106.191571478
            ],
            [
              8285417.0071927905,
              3712106.168607787
            ],
            [
              8285417.176704083,
              3712090.5087677673
            ],
            [
              8285417.160309296,
              3712090.479435155
            ],
            [
              8285417.139203848,
              3712090.4532619226
            ],
            [
              8285417.114088179,
              3712090.4309593355
            ],
            [
              8285417.085662728,
              3712090.4132386395
            ],
            [
              8285417.05451181,
              3712090.4005746227
            ],
            [
              8285417.021807116,
              3712090.393327216
            ],
            [
              8285416.988368891,
              3712090.391736593
            ],
            [
              8285416.955135956,
              3712090.3958076774
            ],
            [
              8285416.922930393,
              3712090.405426853
            ],
            [
              8285416.892927576,
              3712090.420246495
            ],
            [
              8285416.865715485,
              3712090.440033828
            ],
            [
              8285416.84223663,
              3712090.4640862253
            ],
            [
              8285413.254228349,
              3712093.2118904227
            ],
            [
              8285409.387993832,
              3712095.5480740904
            ],
            [
              8285407.950130582,
              3712096.2510551405
            ],
            [
              8285406.433012105,
              3712096.7584462343
            ],
            [
              8285404.862736176,
              3712097.061657478
            ],
            [
              8285403.266439605,
              3712097.155406502
            ],
            [
              8285385.957575739,
              3712097.178231275
            ],
            [
              8285359.26297378,
              3712097.1224922924
            ],
            [
              8285341.728181692,
              3712097.058568086
            ],
            [
              8285321.644806537,
              3712096.896669406
            ],
            [
              8285299.572621884,
              3712096.752585264
            ],
            [
              8285281.9376299335,
              3712096.572004771
            ]
          ]
        ]
      }
    },
    {
      "type": "Feature",
      "properties": {
        "Id": 0
      },
      "geometry": {
        "type": "Polygon",
        "coordinates": [
          [
            [
              8285596.069833317,
              3712010.8510966282
            ],
            [
              8285596.705663649,
              3712013.048139539
            ],
            [
              8285597.667912926,
              3712015.12165011
            ],
            [
              8285598.93394751,
              3712017.0232767896
            ],
            [
              8285600.474307725,
              3712018.708405992
            ],
            [
              8285602.989773704,
              3712019.827506348
            ],
            [
              8285605.655125656,
              3712020.511878219
            ],
            [
              8285608.396526699,
              3712020.742738217
            ],
            [
              8285610.229764584,
              3712020.3521952927
            ],
            [
              8285611.990846578,
              3712019.7090242663
            ],
            [
              8285613.645792415,
              3712018.8256658684
            ],
            [
              8285615.1621223865,
              3712017.7194037926
            ],
            [
              8285616.510503336,
              3712016.4117836733
            ],
            [
              8285617.199323237,
              3712015.629743297
            ],
            [
              8285617.760259399,
              3712014.7505680313
            ],
            [
              8285618.179942913,
              3712013.7950614165
            ],
            [
              8285618.448279746,
              3712012.7861668556
            ],
            [
              8285618.559160973,
              3712011.747792012
            ],
            [
              8285618.509642509,
              3712010.704568659
            ],
            [
              8285616.841542249,
              3711999.968198323
            ],
            [
              8285614.524775957,
              3711989.3541560634
            ],
            [
              8285611.568177924,
              3711978.9017576906
            ],
            [
              8285607.982578529,
              3711968.650093367
            ],
            [
              8285603.742246557,
              3711957.8352043894
            ],
            [
              8285598.843848413,
              3711947.304743569
            ],
            [
              8285593.306186809,
              3711937.099257182
            ],
            [
              8285592.220460635,
              3711935.7329189647
            ],
            [
              8285590.93059408,
              3711934.559504597
            ],
            [
              8285589.469993825,
              3711933.609260498
            ],
            [
              8285587.87667254,
              3711932.906796623
            ],
            [
              8285586.191726386,
              3711932.470488906
            ],
            [
              8285584.458988473,
              3711932.311416076
            ],
            [
              8285582.723265538,
              3711932.433940098
            ],
            [
              8285581.029638748,
              3711932.834759059
            ],
            [
              8285579.422052437,
              3711933.5034894645
            ],
            [
              8285577.941905296,
              3711934.4227767605
            ],
            [
              8285576.627930583,
              3711935.5687664044
            ],
            [
              8285575.43307583,
              3711936.940150871
            ],
            [
              8285574.4673464475,
              3711938.483141115
            ],
            [
              8285573.754882064,
              3711940.1593010444
            ],
            [
              8285573.313383302,
              3711941.9272126174
            ],
            [
              8285573.153640529,
              3711943.7428271775
            ],
            [
              8285573.279759976,
              3711945.5611176067
            ],
            [
              8285573.688454729,
              3711947.3370180293
            ],
            [
              8285574.369744541,
              3711949.026253006
            ],
            [
              8285579.745782698,
              3711958.645986408
            ],
            [
              8285584.545571621,
              3711968.568733987
            ],
            [
              8285588.79234629,
              3711980.311771766
            ],
            [
              8285592.420295394,
              3711992.2624378568
            ],
            [
              8285595.419494881,
              3712004.387897236
            ],
            [
              8285596.069833317,
              3712010.8510966282
            ]
          ]
        ]
      }
    },
    {
      "type": "Feature",
      "properties": {
        "Id": 0
      },
      "geometry": {
        "type": "Polygon",
        "coordinates": [
          [
            [
              8285089.149827233,
              3711844.3984940453
            ],
            [
              8285088.213529661,
              3711844.67823146
            ],
            [
              8285087.725432922,
              3711844.9219532195
            ],
            [
              8285086.464034141,
              3711845.55180843
            ],
            [
              8285084.889180998,
              3711846.7135775494
            ],
            [
              8285083.535621457,
              3711848.129232301
            ],
            [
              8285082.443357254,
              3711849.7568837646
            ],
            [
              8285081.644559733,
              3711851.5484694494
            ],
            [
              8285081.1629763,
              3711853.451047397
            ],
            [
              8285081.012748296,
              3711855.4084408735
            ],
            [
              8285081.198402957,
              3711857.3627713807
            ],
            [
              8285081.714257407,
              3711859.2562244525
            ],
            [
              8285082.545230215,
              3711861.032940723
            ],
            [
              8285083.666834003,
              3711862.640431079
            ],
            [
              8285085.045754165,
              3711864.0311127705
            ],
            [
              8285086.641366413,
              3711865.163850486
            ],
            [
              8285088.406433486,
              3711866.005375196
            ],
            [
              8285090.288746225,
              3711866.5306466073
            ],
            [
              8285137.604505955,
              3711866.879047232
            ],
            [
              8285213.5104700485,
              3711867.3476062436
            ],
            [
              8285275.261135303,
              3711867.672504583
            ],
            [
              8285335.849091161,
              3711868.0597311608
            ],
            [
              8285392.402300526,
              3711868.425475978
            ],
            [
              8285436.030256449,
              3711868.8605482196
            ],
            [
              8285443.590879439,
              3711868.7976090335
            ],
            [
              8285451.128979488,
              3711869.3882200127
            ],
            [
              8285458.588484933,
              3711870.628077734
            ],
            [
              8285470.764435285,
              3711873.0009435727
            ],
            [
              8285482.756047297,
              3711876.183820368
            ],
            [
              8285494.510001361,
              3711880.162396464
            ],
            [
              8285504.822079888,
              3711884.8555971147
            ],
            [
              8285514.836436339,
              3711890.159984192
            ],
            [
              8285524.5173776215,
              3711896.0565037974
            ],
            [
              8285533.4443442,
              3711902.4474331965
            ],
            [
              8285541.82842627,
              3711909.5422591516
            ],
            [
              8285543.328651513,
              3711910.5217249044
            ],
            [
              8285544.965976347,
              3711911.2465942306
            ],
            [
              8285546.697663509,
              3711911.698128523
            ],
            [
              8285548.479179359,
              3711911.864537564
            ],
            [
              8285550.264074091,
              3711911.741450614
            ],
            [
              8285551.939000256,
              3711911.3708462133
            ],
            [
              8285553.535237392,
              3711910.7405057675
            ],
            [
              8285555.013155508,
              3711909.866142131
            ],
            [
              8285556.336145195,
              3711908.7693804093
            ],
            [
              8285557.471440949,
              3711907.477408468
            ],
            [
              8285558.390593001,
              3711906.022507677
            ],
            [
              8285559.12623002,
              3711903.973822126
            ],
            [
              8285559.551681001,
              3711901.838133044
            ],
            [
              8285559.657546918,
              3711899.662798341
            ],
            [
              8285559.4414674,
              3711897.49568444
            ],
            [
              8285559.429626085,
              3711897.040774398
            ],
            [
              8285559.349447926,
              3711896.592936053
            ],
            [
              8285559.20252265,
              3711896.1624374613
            ],
            [
              8285558.992553531,
              3711895.759321879
            ],
            [
              8285558.724187536,
              3711895.3926940747
            ],
            [
              8285558.403716384,
              3711895.0713136573
            ],
            [
              8285545.899600166,
              3711884.0544704297
            ],
            [
              8285534.724493482,
              3711876.666970817
            ],
            [
              8285523.214613147,
              3711869.8178204666
            ],
            [
              8285515.452654015,
              3711865.6198540498
            ],
            [
              8285507.4690661235,
              3711861.865074022
            ],
            [
              8285499.288666582,
              3711858.565284416
            ],
            [
              8285485.057254672,
              3711853.8896370446
            ],
            [
              8285470.577960297,
              3711850.058451062
            ],
            [
              8285457.356049807,
              3711848.0940302033
            ],
            [
              8285444.041301523,
              3711846.923349649
            ],
            [
              8285430.680749631,
              3711846.550665115
            ],
            [
              8285384.027876618,
              3711846.0419105017
            ],
            [
              8285340.481537186,
              3711845.7252444774
            ],
            [
              8285297.110400822,
              3711845.365356004
            ],
            [
              8285245.925006814,
              3711845.281072525
            ],
            [
              8285194.743283742,
              3711844.6508239866
            ],
            [
              8285153.384509903,
              3711844.4769644863
            ],
            [
              8285104.323199716,
              3711844.2183638327
            ],
            [
              8285092.026363211,
              3711843.8897128645
            ],
            [
              8285090.086131398,
              3711844.11875458
            ],
            [
              8285089.149827233,
              3711844.3984940453
            ]
          ]
        ]
      }
    },
    {
      "type": "Feature",
      "properties": {
        "Id": 0
      },
      "geometry": {
        "type": "Polygon",
        "coordinates": [
          [
            [
              8285075.3550266735,
              3711843.8800803823
            ],
            [
              8285073.4385081325,
              3711843.882941867
            ],
            [
              8285071.548959041,
              3711844.2044672035
            ],
            [
              8285069.7382962275,
              3711844.8357319944
            ],
            [
              8285068.0566026885,
              3711845.7594293775
            ],
            [
              8285066.55013201,
              3711846.9499774077
            ],
            [
              8285065.260598757,
              3711848.3745766394
            ],
            [
              8285064.197158619,
              3711850.122664539
            ],
            [
              8285063.450449278,
              3711852.0292673106
            ],
            [
              8285063.042951426,
              3711854.036837166
            ],
            [
              8285062.98671637,
              3711856.0849409658
            ],
            [
              8285063.283592111,
              3711858.1119124033
            ],
            [
              8285063.924742803,
              3711860.056972124
            ],
            [
              8285064.948967019,
              3711861.6593510867
            ],
            [
              8285066.210017064,
              3711863.081017465
            ],
            [
              8285067.676741486,
              3711864.287136057
            ],
            [
              8285069.313150894,
              3711865.247917031
            ],
            [
              8285071.078998589,
              3711865.93979826
            ],
            [
              8285072.930600759,
              3711866.345685541
            ],
            [
              8285074.822711051,
              3711866.4555521067
            ],
            [
              8285073.325355093,
              3711863.4077154645
            ],
            [
              8285072.332617934,
              3711860.1584090204
            ],
            [
              8285071.87046691,
              3711856.7912627347
            ],
            [
              8285071.9505352555,
              3711853.393132755
            ],
            [
              8285072.57095595,
              3711850.051747255
            ],
            [
              8285073.715553236,
              3711846.8532257136
            ],
            [
              8285075.3550266735,
              3711843.8800803823
            ]
          ]
        ]
      }
    },
    {
      "type": "Feature",
      "properties": {
        "Id": 0
      },
      "geometry": {
        "type": "Polygon",
        "coordinates": [
          [
            [
              8285931.04427747,
              3712100.112119776
            ],
            [
              8285891.970205137,
              3712099.7398001007
            ],
            [
              8285854.99612026,
              3712099.547173798
            ],
            [
              8285816.8174985675,
              3712099.376220988
            ],
            [
              8285813.130493188,
              3712098.881029726
            ],
            [
              8285809.554327952,
              3712097.8524289294
            ],
            [
              8285806.164818046,
              3712096.3126312504
            ],
            [
              8285803.034088209,
              3712094.2939722077
            ],
            [
              8285801.3600179525,
              3712093.018556529
            ],
            [
              8285801.134245974,
              3712093.3552479185
            ],
            [
              8285800.836972772,
              3712107.512242832
            ],
            [
              8285801.623279486,
              3712107.1222220673
            ],
            [
              8285806.316211844,
              3712104.2193230563
            ],
            [
              8285810.584248912,
              3712102.2149557313
            ],
            [
              8285812.912620094,
              3712101.551477414
            ],
            [
              8285815.491583662,
              3712101.19898934
            ],
            [
              8285819.88941894,
              3712101.1937360545
            ],
            [
              8285834.4550776975,
              3712101.2416081303
            ],
            [
              8285861.233004038,
              3712101.4374241596
            ],
            [
              8285888.487469125,
              3712101.5512252343
            ],
            [
              8285922.856557526,
              3712101.730188831
            ],
            [
              8285931.035862349,
              3712101.744697673
            ],
            [
              8285931.169746983,
              3712101.7028218433
            ],
            [
              8285931.294825233,
              3712101.6390831415
            ],
            [
              8285931.4074506415,
              3712101.5551136034
            ],
            [
              8285931.504441908,
              3712101.4533732035
            ],
            [
              8285931.583085321,
              3712101.336678133
            ],
            [
              8285931.641133548,
              3712101.208436666
            ],
            [
              8285931.676925405,
              3712101.07217805
            ],
            [
              8285931.689384664,
              3712100.9317883737
            ],
            [
              8285931.678373299,
              3712100.7912765346
            ],
            [
              8285931.643988,
              3712100.654652658
            ],
            [
              8285931.587264882,
              3712100.525813811
            ],
            [
              8285931.5098286625,
              3712100.4083063607
            ],
            [
              8285931.413891416,
              3712100.3055617837
            ],
            [
              8285931.302137677,
              3712100.220424364
            ],
            [
              8285931.04427747,
              3712100.112119776
            ]
          ]
        ]
      }
    },
    {
      "type": "Feature",
      "properties": {
        "Id": 0
      },
      "geometry": {
        "type": "Polygon",
        "coordinates": [
          [
            [
              8286067.307366862,
              3712101.702130381
            ],
            [
              8286067.307366862,
              3712101.7021303293
            ],
            [
              8286067.301243054,
              3712101.5465489854
            ],
            [
              8286067.268696591,
              3712101.39436827
            ],
            [
              8286067.210407942,
              3712101.250191021
            ],
            [
              8286067.128350882,
              3712101.118155039
            ],
            [
              8286067.024851847,
              3712101.002282023
            ],
            [
              8286066.903061182,
              3712100.9061262305
            ],
            [
              8286066.766602271,
              3712100.8325367975
            ],
            [
              8286066.619454814,
              3712100.7835392035
            ],
            [
              8286001.232279732,
              3712100.3998837536
            ],
            [
              8285976.62969761,
              3712100.2719446234
            ],
            [
              8285968.232232252,
              3712100.2282644133
            ],
            [
              8285968.111752453,
              3712100.333420809
            ],
            [
              8285968.009954377,
              3712100.4570714566
            ],
            [
              8285967.929672726,
              3712100.595693199
            ],
            [
              8285967.873038086,
              3712100.7457592264
            ],
            [
              8285967.841714659,
              3712100.9031506474
            ],
            [
              8285967.8363116905,
              3712101.0635072268
            ],
            [
              8285967.857203107,
              3712101.2225854294
            ],
            [
              8285967.903707274,
              3712101.3760183076
            ],
            [
              8285967.974553962,
              3712101.5197896347
            ],
            [
              8285968.06800292,
              3712101.6499986625
            ],
            [
              8285968.181255898,
              3712101.7630929444
            ],
            [
              8285968.311394866,
              3712101.8559911223
            ],
            [
              8285996.322060978,
              3712102.0016684313
            ],
            [
              8286025.645792907,
              3712102.154105288
            ],
            [
              8286053.8743039165,
              3712102.4766151914
            ],
            [
              8286066.8297218615,
              3712102.456052184
            ],
            [
              8286066.960068507,
              3712102.371819623
            ],
            [
              8286067.073976927,
              3712102.266392223
            ],
            [
              8286067.168262821,
              3712102.14281963
            ],
            [
              8286067.239738846,
              3712102.00474112
            ],
            [
              8286067.286622872,
              3712101.8563929084
            ],
            [
              8286067.307366862,
              3712101.702130381
            ]
          ]
        ]
      }
    }
  ]
}