{
  "type": "FeatureCollection",
  "name": "F:\\MOEED\\CB_1\\Topography CB_1\\Kela\\Park.geojson",
  "crs": {
    "type": "name",
    "properties": {
      "name": "urn:ogc:def:crs:EPSG::3857"
    }
  },
  "features": [
    {
      "type": "Feature",
      "properties": {
        "Id": 0
      },
      "geometry": {
        "type": "Polygon",
        "coordinates": [
          [
            [
              8285883.839295149,
              3712171.8136786115
            ],
            [
              8285882.345722913,
              3712175.488908535
            ],
            [
              8285875.3248232985,
              3712193.331062987
            ],
            [
              8285866.624243493,
              3712212.905303517
            ],
            [
              8285857.339232343,
              3712231.744642209
            ],
            [
              8285851.879608272,
              3712242.0749126817
            ],
            [
              8285844.70460961,
              3712253.69101668
            ],
            [
              8285844.662875569,
              3712253.727711665
            ],
            [
              8285844.628030143,
              3712253.771282574
            ],
            [
              8285844.601255394,
              3712253.820084533
            ],
            [
              8285844.583261541,
              3712253.872941923
            ],
            [
              8285844.574761846,
              3712253.9280895
            ],
            [
              8285844.575764822,
              3712253.983876266
            ],
            [
              8285844.586513707,
              3712254.038652444
            ],
            [
              8285844.6065482125,
              3712254.090646672
            ],
            [
              8285844.63528887,
              3712254.138440751
            ],
            [
              8285844.671804752,
              3712254.1804967225
            ],
            [
              8285844.715046373,
              3712254.215511866
            ],
            [
              8285844.763727694,
              3712254.242536029
            ],
            [
              8285844.816210624,
              3712254.260617223
            ],
            [
              8285844.87108995,
              3712254.2691584635
            ],
            [
              8285844.926605353,
              3712254.2681505806
            ],
            [
              8285844.981115091,
              3712254.257349154
            ],
            [
              8285845.032973761,
              3712254.237217331
            ],
            [
              8285845.080534749,
              3712254.2084541116
            ],
            [
              8285845.122386146,
              3712254.1717597353
            ],
            [
              8285847.695232419,
              3712252.2710247
            ],
            [
              8285850.268074495,
              3712250.3702919153
            ],
            [
              8285857.408929566,
              3712245.3688916997
            ],
            [
              8285870.586288943,
              3712237.640412625
            ],
            [
              8285880.38988092,
              3712232.3151220037
            ],
            [
              8285881.0944908485,
              3712231.4742875122
            ],
            [
              8285881.743267446,
              3712230.6050945725
            ],
            [
              8285882.223556963,
              3712229.8194626765
            ],
            [
              8285883.073687968,
              3712227.909750975
            ],
            [
              8285883.616344021,
              3712225.8859315794
            ],
            [
              8285883.732483468,
              3712225.0982851037
            ],
            [
              8285883.684636441,
              3712223.521768965
            ],
            [
              8285883.57626253,
              3712211.952171034
            ],
            [
              8285883.837968133,
              3712193.7976033273
            ],
            [
              8285883.959696304,
              3712175.614383603
            ],
            [
              8285883.839295149,
              3712171.8136786115
            ]
          ]
        ]
      }
    },
    {
      "type": "Feature",
      "properties": {
        "Id": 0
      },
      "geometry": {
        "type": "Polygon",
        "coordinates": [
          [
            [
              8285895.220978075,
              3712206.9047406097
            ],
            [
              8285895.148796228,
              3712220.900095335
            ],
            [
              8285895.267919406,
              3712221.1584023205
            ],
            [
              8285895.427755259,
              3712221.3934640842
            ],
            [
              8285895.623937529,
              3712221.5988594126
            ],
            [
              8285895.851107083,
              3712221.7689774884
            ],
            [
              8285896.103058295,
              3712221.8991711703
            ],
            [
              8285896.37290858,
              3712221.985883938
            ],
            [
              8285896.653286399,
              3712222.026747044
            ],
            [
              8285896.93653263,
              3712222.020644228
            ],
            [
              8285897.214909791,
              3712221.967742198
            ],
            [
              8285906.764234254,
              3712218.643458056
            ],
            [
              8285916.45326433,
              3712215.7561116354
            ],
            [
              8285926.2622130625,
              3712213.311599161
            ],
            [
              8285933.805796939,
              3712211.5839067195
            ],
            [
              8285941.417063849,
              3712210.187794857
            ],
            [
              8285941.5278594205,
              3712207.2419029973
            ],
            [
              8285895.220978075,
              3712206.9047406097
            ]
          ]
        ]
      }
    },
    {
      "type": "Feature",
      "properties": {
        "Id": 0
      },
      "geometry": {
        "type": "Polygon",
        "coordinates": [
          [
            [
              8285946.383217353,
              3711960.4516881537
            ],
            [
              8285940.157069482,
              3711967.978616604
            ],
            [
              8285933.4982556,
              3711975.121812228
            ],
            [
              8285921.9764468605,
              3711986.4990502223
            ],
            [
              8285912.156573489,
              3711994.400689544
            ],
            [
              8285907.3871920165,
              3711998.411168289
            ],
            [
              8285907.017908467,
              3711998.78681895
            ],
            [
              8285906.71616539,
              3711999.2191140563
            ],
            [
              8285906.49042031,
              3711999.6959368754
            ],
            [
              8285906.34700061,
              3712000.203922603
            ],
            [
              8285906.289926198,
              3712000.728832983
            ],
            [
              8285906.320796813,
              3712001.2559553697
            ],
            [
              8285906.322744074,
              3712001.4785914
            ],
            [
              8285906.360255294,
              3712001.69802192
            ],
            [
              8285906.432356221,
              3712001.908547796
            ],
            [
              8285906.537174224,
              3712002.1047011795
            ],
            [
              8285906.671986937,
              3712002.2813875005
            ],
            [
              8285906.833292952,
              3712002.434017798
            ],
            [
              8285907.016902777,
              3712002.5586279067
            ],
            [
              8285907.218047633,
              3712002.6519814045
            ],
            [
              8285907.43150331,
              3712002.7116536796
            ],
            [
              8285907.651725865,
              3712002.7360949037
            ],
            [
              8285952.555735348,
              3712003.033871989
            ],
            [
              8285994.8145678155,
              3712003.3177289064
            ],
            [
              8285997.188752623,
              3712000.2555491785
            ],
            [
              8285991.374912372,
              3711996.6704012337
            ],
            [
              8285979.045751181,
              3711986.745344349
            ],
            [
              8285963.0528326435,
              3711973.870907917
            ],
            [
              8285946.383217353,
              3711960.4516881537
            ]
          ]
        ]
      }
    },
    {
      "type": "Feature",
      "properties": {
        "Id": 0
      },
      "geometry": {
        "type": "Polygon",
        "coordinates": [
          [
            [
              8285784.590059855,
              3711961.421384388
            ],
            [
              8285764.493384486,
              3711964.9675100385
            ],
            [
              8285764.489908861,
              3711965.6400420177
            ],
            [
              8285772.939338195,
              3711977.2455959343
            ],
            [
              8285780.942939911,
              3711988.7847764874
            ],
            [
              8285786.123229477,
              3711997.7791577214
            ],
            [
              8285788.554525215,
              3712002.179442451
            ],
            [
              8285789.604734461,
              3712002.4731576294
            ],
            [
              8285803.247423338,
              3712002.0639237706
            ],
            [
              8285818.416877795,
              3712002.2391087683
            ],
            [
              8285843.848524348,
              3712002.4357404215
            ],
            [
              8285867.241506396,
              3712002.429539281
            ],
            [
              8285864.183530371,
              3711995.944296545
            ],
            [
              8285857.720988687,
              3711982.203383189
            ],
            [
              8285854.979239387,
              3711976.2001900566
            ],
            [
              8285842.008452332,
              3711982.281627203
            ],
            [
              8285823.971046099,
              3711988.2085333955
            ],
            [
              8285811.527179788,
              3711990.993985185
            ],
            [
              8285796.217357965,
              3711993.3161084345
            ],
            [
              8285787.417537525,
              3711994.006809348
            ],
            [
              8285785.760317199,
              3711993.9981639246
            ],
            [
              8285785.380198074,
              3711993.5478130933
            ],
            [
              8285785.48440904,
              3711989.415687618
            ],
            [
              8285785.0850953255,
              3711983.7974809515
            ],
            [
              8285785.006659544,
              3711980.2521065706
            ],
            [
              8285785.09287666,
              3711977.0419104956
            ],
            [
              8285784.635193225,
              3711971.2314239377
            ],
            [
              8285784.621188409,
              3711968.1873819986
            ],
            [
              8285784.590059855,
              3711961.421384388
            ]
          ]
        ]
      }
    },
    {
      "type": "Feature",
      "properties": {
        "Id": 0
      },
      "geometry": {
        "type": "Polygon",
        "coordinates": [
          [
            [
              8285825.860916077,
              3711795.0055062734
            ],
            [
              8285825.738310967,
              3711794.749115246
            ],
            [
              8285825.575109572,
              3711794.5166933043
            ],
            [
              8285825.375827251,
              3711794.314670959
            ],
            [
              8285825.145977635,
              3711794.1486376426
            ],
            [
              8285824.891920063,
              3711794.023187063
            ],
            [
              8285824.62068365,
              3711793.941790112
            ],
            [
              8285824.339772801,
              3711793.906698828
            ],
            [
              8285824.05695959,
              3711793.9188840995
            ],
            [
              8285823.780068727,
              3711793.9780087876
            ],
            [
              8285823.516761058,
              3711794.0824370706
            ],
            [
              8285823.274321627,
              3711794.229279688
            ],
            [
              8285823.059458099,
              3711794.414473886
            ],
            [
              8285788.1026206035,
              3711818.2194855656
            ],
            [
              8285787.842767265,
              3711818.5051681357
            ],
            [
              8285787.630292255,
              3711818.827986951
            ],
            [
              8285787.470366759,
              3711819.18008531
            ],
            [
              8285787.36688302,
              3711819.5528939087
            ],
            [
              8285787.3223596085,
              3711819.9373393995
            ],
            [
              8285787.337880134,
              3711820.324065221
            ],
            [
              8285787.413066864,
              3711820.7036593077
            ],
            [
              8285787.546089926,
              3711821.0668831584
            ],
            [
              8285795.631933116,
              3711835.130298331
            ],
            [
              8285803.274781733,
              3711849.4417018816
            ],
            [
              8285812.877728644,
              3711870.2585946196
            ],
            [
              8285813.084659126,
              3711870.580598392
            ],
            [
              8285813.338728299,
              3711870.866504915
            ],
            [
              8285813.633802864,
              3711871.10941232
            ],
            [
              8285813.962759632,
              3711871.303456743
            ],
            [
              8285814.317657485,
              3711871.443953891
            ],
            [
              8285814.689929084,
              3711871.5275121164
            ],
            [
              8285815.632034177,
              3711871.7549694804
            ],
            [
              8285816.595699519,
              3711871.856188539
            ],
            [
              8285817.564248454,
              3711871.8294176464
            ],
            [
              8285817.955025196,
              3711871.767980388
            ],
            [
              8285818.332364097,
              3711871.6488270806
            ],
            [
              8285818.6878729835,
              3711871.4746077457
            ],
            [
              8285819.013645185,
              3711871.249197095
            ],
            [
              8285819.302435397,
              3711870.977608361
            ],
            [
              8285824.095219762,
              3711866.335764054
            ],
            [
              8285828.260505299,
              3711861.1182021513
            ],
            [
              8285831.730420869,
              3711855.4099417804
            ],
            [
              8285834.4484264115,
              3711849.3039976656
            ],
            [
              8285836.620801396,
              3711843.7001509313
            ],
            [
              8285838.200081206,
              3711837.8992923326
            ],
            [
              8285839.169061877,
              3711831.96461717
            ],
            [
              8285838.78677279,
              3711824.6514859484
            ],
            [
              8285837.800109682,
              3711817.395705003
            ],
            [
              8285836.42383179,
              3711813.3044312615
            ],
            [
              8285834.6405779505,
              3711809.375047975
            ],
            [
              8285832.38289727,
              3711805.517204813
            ],
            [
              8285828.371817553,
              3711798.6633659955
            ],
            [
              8285825.860916077,
              3711795.0055062734
            ]
          ]
        ]
      }
    },
    {
      "type": "Feature",
      "properties": {
        "Id": 0
      },
      "geometry": {
        "type": "Polygon",
        "coordinates": [
          [
            [
              8285771.793339247,
              3711870.59474244
            ],
            [
              8285754.217635532,
              3711879.7104853275
            ],
            [
              8285758.708429248,
              3711881.956144516
            ],
            [
              8285763.417242471,
              3711883.693280967
            ],
            [
              8285768.287254395,
              3711884.900932554
            ],
            [
              8285773.259698965,
              3711885.5645264657
            ],
            [
              8285779.5876933625,
              3711885.880182607
            ],
            [
              8285785.915563584,
              3711885.56202174
            ],
            [
              8285792.180597582,
              3711884.6131970165
            ],
            [
              8285798.320706062,
              3711883.0431118477
            ],
            [
              8285802.312901294,
              3711881.412593741
            ],
            [
              8285797.979717338,
              3711871.9323253944
            ],
            [
              8285776.616704105,
              3711881.578794164
            ],
            [
              8285771.793339247,
              3711870.59474244
            ]
          ]
        ]
      }
    },
    {
      "type": "Feature",
      "properties": {
        "Id": 0
      },
      "geometry": {
        "type": "Polygon",
        "coordinates": [
          [
            [
              8286034.634645723,
              3711962.8672736366
            ],
            [
              8286062.497606847,
              3711964.4986748444
            ],
            [
              8286062.503744907,
              3711963.8724630806
            ],
            [
              8286062.683656265,
              3711928.894523027
            ],
            [
              8286062.971862552,
              3711911.922614315
            ],
            [
              8286062.995094267,
              3711894.9482913218
            ],
            [
              8286063.116428065,
              3711888.379274786
            ],
            [
              8286062.241106261,
              3711888.37472845
            ],
            [
              8286058.439462289,
              3711902.898566136
            ],
            [
              8286054.25788915,
              3711917.316787194
            ],
            [
              8286049.181427765,
              3711931.151464546
            ],
            [
              8286043.612351196,
              3711944.793613076
            ],
            [
              8286039.331156234,
              3711953.934647415
            ],
            [
              8286036.982913098,
              3711958.4009435275
            ],
            [
              8286034.634645723,
              3711962.8672736366
            ]
          ]
        ]
      }
    },
    {
      "type": "Feature",
      "properties": {
        "Id": 0
      },
      "geometry": {
        "type": "Polygon",
        "coordinates": [
          [
            [
              8285347.541944588,
              3712211.3561189873
            ],
            [
              8285338.579762223,
              3712211.058824842
            ],
            [
              8285339.405688291,
              3712243.7405760433
            ],
            [
              8285362.36170793,
              3712243.9612501184
            ],
            [
              8285363.661121683,
              3712243.0673179524
            ],
            [
              8285360.002412296,
              3712237.993856501
            ],
            [
              8285347.541944588,
              3712211.3561189873
            ]
          ]
        ]
      }
    },
    {
      "type": "Feature",
      "properties": {
        "Id": 0
      },
      "geometry": {
        "type": "Polygon",
        "coordinates": [
          [
            [
              8285850.133208169,
              3712118.564357515
            ],
            [
              8285816.670093075,
              3712118.325857876
            ],
            [
              8285816.079823841,
              3712118.26839028
            ],
            [
              8285815.487993027,
              3712118.306317654
            ],
            [
              8285814.909770174,
              3712118.438667853
            ],
            [
              8285814.359976038,
              3712118.662048545
            ],
            [
              8285813.852702703,
              3712118.970734136
            ],
            [
              8285813.400952379,
              3712119.356812536
            ],
            [
              8285813.016304137,
              3712119.8103879634
            ],
            [
              8285812.708617127,
              3712120.319834572
            ],
            [
              8285812.485777857,
              3712120.8720944542
            ],
            [
              8285812.353498056,
              3712121.453012325
            ],
            [
              8285812.315168281,
              3712122.047698344
            ],
            [
              8285811.377804778,
              3712129.7701914078
            ],
            [
              8285838.073729011,
              3712133.2977966443
            ],
            [
              8285847.3731535,
              3712134.6273338483
            ],
            [
              8285850.133208169,
              3712118.564357515
            ]
          ]
        ]
      }
    }
  ]
}